{"type": "FeatureCollection", "features": [{"type": "Feature", "geometry": {"type": "Point", "coordinates": [16.642104201925, 49.21144265588889]}, "properties": {"Album": "Pictures", "Album2": "Sebastien", "Name": "20220312_163600.jpg", "Date": "2022-03-12 16:36:00"}}, {"type": "Feature", "geometry": {"type": "Point", "coordinates": [16.642104201925, 49.21144265588889]}, "properties": {"Album": "Pictures", "Album2": "Sebastien", "Name": "20220401_135500.jpg", "Date": "2022-04-01 13:55:00"}}, {"type": "Feature", "geometry": {"type": "Point", "coordinates": [16.596841196555555, 49.19891477613889]}, "properties": {"Album": "Pictures", "Album2": "Sebastien", "Name": "20220403_020200.jpg", "Date": "2022-04-03 02:02:00"}}, {"type": "Feature", "geometry": {"type": "Point", "coordinates": [16.596841196555555, 49.19891477613889]}, "properties": {"Album": "Pictures", "Album2": "Sebastien", "Name": "20220403_140000.jpg", "Date": "2022-04-03 14:00:00"}}, {"type": "Feature", "geometry": {"type": "Point", "coordinates": [16.596841196555555, 49.19891477613889]}, "properties": {"Album": "Pictures", "Album2": "Sebastien", "Name": "20220403_141700.jpg", "Date": "2022-04-03 14:17:00"}}, {"type": "Feature", "geometry": {"type": "Point", "coordinates": [16.642083108180554, 49.21143335758055]}, "properties": {"Album": "Pictures", "Album2": "Sebastien", "Name": "20220405_115400.jpg", "Date": "2022-04-05 11:54:00"}}, {"type": "Feature", "geometry": {"type": "Point", "coordinates": [16.642083108180554, 49.21143335758055]}, "properties": {"Album": "Pictures", "Album2": "Sebastien", "Name": "20220406_095500.jpg", "Date": "2022-04-06 09:55:00"}}, {"type": "Feature", "geometry": {"type": "Point", "coordinates": [16.642083108180554, 49.21143335758055]}, "properties": {"Album": "Pictures", "Album2": "Sebastien", "Name": "20220406_145700.jpg", "Date": "2022-04-06 14:57:00"}}, {"type": "Feature", "geometry": {"type": "Point", "coordinates": [16.642083108180554, 49.21143335758055]}, "properties": {"Album": "Pictures", "Album2": "Sebastien", "Name": "20220406_153800.jpg", "Date": "2022-04-06 15:38:00"}}, {"type": "Feature", "geometry": {"type": "Point", "coordinates": [16.642083108180554, 49.21143335758055]}, "properties": {"Album": "Pictures", "Album2": "Sebastien", "Name": "20220406_162700.jpg", "Date": "2022-04-06 16:27:00"}}, {"type": "Feature", "geometry": {"type": "Point", "coordinates": [16.642104201925, 49.21144265588889]}, "properties": {"Album": "Pictures", "Album2": "Sebastien", "Name": "20220406_181000.jpg", "Date": "2022-04-06 18:10:00"}}, {"type": "Feature", "geometry": {"type": "Point", "coordinates": [16.64191214953889, 49.21153116385833]}, "properties": {"Album": "Pictures", "Album2": "Sebastien", "Name": "20220407_114400.jpg", "Date": "2022-04-07 11:44:00"}}, {"type": "Feature", "geometry": {"type": "Point", "coordinates": [16.642083108180554, 49.21143335758055]}, "properties": {"Album": "Pictures", "Album2": "Sebastien", "Name": "20220407_150300.jpg", "Date": "2022-04-07 15:03:00"}}, {"type": "Feature", "geometry": {"type": "Point", "coordinates": [16.642083108180554, 49.21143335758055]}, "properties": {"Album": "Pictures", "Album2": "Sebastien", "Name": "20220407_185000.jpg", "Date": "2022-04-07 18:50:00"}}, {"type": "Feature", "geometry": {"type": "Point", "coordinates": [16.642083108180554, 49.21143335758055]}, "properties": {"Album": "Pictures", "Album2": "Sebastien", "Name": "20220408_164700.jpg", "Date": "2022-04-08 16:47:00"}}, {"type": "Feature", "geometry": {"type": "Point", "coordinates": [16.642083108180554, 49.21143335758055]}, "properties": {"Album": "Pictures", "Album2": "Sebastien", "Name": "20220408_183200.jpg", "Date": "2022-04-08 18:32:00"}}, {"type": "Feature", "geometry": {"type": "Point", "coordinates": [16.642083108180554, 49.21143335758055]}, "properties": {"Album": "Pictures", "Album2": "Sebastien", "Name": "20220409_083300.jpg", "Date": "2022-04-09 08:33:00"}}, {"type": "Feature", "geometry": {"type": "Point", "coordinates": [16.642083108180554, 49.21143335758055]}, "properties": {"Album": "Pictures", "Album2": "Sebastien", "Name": "20220410_084900.jpg", "Date": "2022-04-10 08:49:00"}}, {"type": "Feature", "geometry": {"type": "Point", "coordinates": [16.642083108180554, 49.21143335758055]}, "properties": {"Album": "Pictures", "Album2": "Sebastien", "Name": "20220410_182400.jpg", "Date": "2022-04-10 18:24:00"}}, {"type": "Feature", "geometry": {"type": "Point", "coordinates": [16.642083108180554, 49.21143335758055]}, "properties": {"Album": "Pictures", "Album2": "Sebastien", "Name": "20220411_135000.jpg", "Date": "2022-04-11 13:50:00"}}, {"type": "Feature", "geometry": {"type": "Point", "coordinates": [16.642083108180554, 49.21143335758055]}, "properties": {"Album": "Pictures", "Album2": "Sebastien", "Name": "20220412_193500.jpg", "Date": "2022-04-12 19:35:00"}}, {"type": "Feature", "geometry": {"type": "Point", "coordinates": [16.642083108180554, 49.21143335758055]}, "properties": {"Album": "Pictures", "Album2": "Sebastien", "Name": "20220419_113600.jpg", "Date": "2022-04-19 11:36:00"}}, {"type": "Feature", "geometry": {"type": "Point", "coordinates": [16.642083108180554, 49.21143335758055]}, "properties": {"Album": "Pictures", "Album2": "Sebastien", "Name": "20220501_172800.jpg", "Date": "2022-05-01 17:28:00"}}, {"type": "Feature", "geometry": {"type": "Point", "coordinates": [16.642083108180554, 49.21143335758055]}, "properties": {"Album": "Pictures", "Album2": "Sebastien", "Name": "20220503_174400.jpg", "Date": "2022-05-03 17:44:00"}}, {"type": "Feature", "geometry": {"type": "Point", "coordinates": [16.642083108180554, 49.21143335758055]}, "properties": {"Album": "Pictures", "Album2": "Sebastien", "Name": "20220508_183400.jpg", "Date": "2022-05-08 18:34:00"}}, {"type": "Feature", "geometry": {"type": "Point", "coordinates": [16.642083108180554, 49.21143335758055]}, "properties": {"Album": "Pictures", "Album2": "Sebastien", "Name": "20220514_104800.jpg", "Date": "2022-05-14 10:48:00"}}, {"type": "Feature", "geometry": {"type": "Point", "coordinates": [16.642083108180554, 49.21143335758055]}, "properties": {"Album": "Pictures", "Album2": "Sebastien", "Name": "20220514_185200.jpg", "Date": "2022-05-14 18:52:00"}}, {"type": "Feature", "geometry": {"type": "Point", "coordinates": [16.642083108180554, 49.21143335758055]}, "properties": {"Album": "Pictures", "Album2": "Sebastien", "Name": "20220521_065100.jpg", "Date": "2022-05-21 06:51:00"}}, {"type": "Feature", "geometry": {"type": "Point", "coordinates": [16.575318213333333, 49.189521402366665]}, "properties": {"Album": "Pictures", "Album2": "Sebastien", "Name": "20220522_125100.jpg", "Date": "2022-05-22 12:51:00"}}, {"type": "Feature", "geometry": {"type": "Point", "coordinates": [16.642083108180554, 49.21143335758055]}, "properties": {"Album": "Pictures", "Album2": "Sebastien", "Name": "20220528_173700.jpg", "Date": "2022-05-28 17:37:00"}}, {"type": "Feature", "geometry": {"type": "Point", "coordinates": [16.642083108180554, 49.21143335758055]}, "properties": {"Album": "Pictures", "Album2": "Sebastien", "Name": "20220604_084400.jpg", "Date": "2022-06-04 08:44:00"}}, {"type": "Feature", "geometry": {"type": "Point", "coordinates": [16.642083108180554, 49.21143335758055]}, "properties": {"Album": "Pictures", "Album2": "Sebastien", "Name": "20220607_172600.jpg", "Date": "2022-06-07 17:26:00"}}, {"type": "Feature", "geometry": {"type": "Point", "coordinates": [16.642083108180554, 49.21143335758055]}, "properties": {"Album": "Pictures", "Album2": "Sebastien", "Name": "20220609_175100.jpg", "Date": "2022-06-09 17:51:00"}}, {"type": "Feature", "geometry": {"type": "Point", "coordinates": [16.642083108180554, 49.21143335758055]}, "properties": {"Album": "Pictures", "Album2": "Sebastien", "Name": "20220612_164100.jpg", "Date": "2022-06-12 16:41:00"}}, {"type": "Feature", "geometry": {"type": "Point", "coordinates": [16.642083108180554, 49.21143335758055]}, "properties": {"Album": "Pictures", "Album2": "Sebastien", "Name": "20220710_100600.jpg", "Date": "2022-07-10 10:06:00"}}, {"type": "Feature", "geometry": {"type": "Point", "coordinates": [16.642083108180554, 49.21143335758055]}, "properties": {"Album": "Pictures", "Album2": "Sebastien", "Name": "20220711_174300.jpg", "Date": "2022-07-11 17:43:00"}}, {"type": "Feature", "geometry": {"type": "Point", "coordinates": [16.642083108180554, 49.21143335758055]}, "properties": {"Album": "Pictures", "Album2": "Sebastien", "Name": "20220811_114400.jpg", "Date": "2022-08-11 11:44:00"}}, {"type": "Feature", "geometry": {"type": "Point", "coordinates": [16.642083108180554, 49.21143335758055]}, "properties": {"Album": "Pictures", "Album2": "Sebastien", "Name": "20220812_135400.jpg", "Date": "2022-08-12 13:54:00"}}, {"type": "Feature", "geometry": {"type": "Point", "coordinates": [16.642083108180554, 49.21143335758055]}, "properties": {"Album": "Pictures", "Album2": "Sebastien", "Name": "20220816_070944.jpg", "Date": "2022-08-16 07:09:44"}}, {"type": "Feature", "geometry": {"type": "Point", "coordinates": [16.642083108180554, 49.21143335758055]}, "properties": {"Album": "Pictures", "Album2": "Sebastien", "Name": "20220816_070946.jpg", "Date": "2022-08-16 07:09:46"}}, {"type": "Feature", "geometry": {"type": "Point", "coordinates": [16.642083108180554, 49.21143335758055]}, "properties": {"Album": "Pictures", "Album2": "Sebastien", "Name": "20220818_180200.jpg", "Date": "2022-08-18 18:02:00"}}, {"type": "Feature", "geometry": {"type": "Point", "coordinates": [16.648084777194445, 49.22794069640833]}, "properties": {"Album": "Pictures", "Album2": "Sebastien", "Name": "20220827_154000.jpg", "Date": "2022-08-27 15:40:00"}}, {"type": "Feature", "geometry": {"type": "Point", "coordinates": [16.642083108180554, 49.21143335758055]}, "properties": {"Album": "Pictures", "Album2": "Sebastien", "Name": "20220901_140700.jpg", "Date": "2022-09-01 14:07:00"}}, {"type": "Feature", "geometry": {"type": "Point", "coordinates": [16.642083108180554, 49.21143335758055]}, "properties": {"Album": "Pictures", "Album2": "Sebastien", "Name": "20220902_122600.jpg", "Date": "2022-09-02 12:26:00"}}, {"type": "Feature", "geometry": {"type": "Point", "coordinates": [16.642083108180554, 49.21143335758055]}, "properties": {"Album": "Pictures", "Album2": "Sebastien", "Name": "20220902_125400.jpg", "Date": "2022-09-02 12:54:00"}}, {"type": "Feature", "geometry": {"type": "Point", "coordinates": [16.637489793633332, 49.20978125701111]}, "properties": {"Album": "Pictures", "Album2": "Sebastien", "Name": "20220902_140800.jpg", "Date": "2022-09-02 14:08:00"}}, {"type": "Feature", "geometry": {"type": "Point", "coordinates": [16.642083108180554, 49.21143335758055]}, "properties": {"Album": "Pictures", "Album2": "Sebastien", "Name": "20220909_110600.jpg", "Date": "2022-09-09 11:06:00"}}, {"type": "Feature", "geometry": {"type": "Point", "coordinates": [16.642083108180554, 49.21143335758055]}, "properties": {"Album": "Pictures", "Album2": "Sebastien", "Name": "20220909_110601.jpg", "Date": "2022-09-09 11:06:01"}}, {"type": "Feature", "geometry": {"type": "Point", "coordinates": [16.639211969444446, 49.22441886634722]}, "properties": {"Album": "Pictures", "Album2": "Sebastien", "Name": "20221002_122300.jpg", "Date": "2022-10-02 12:23:00"}}, {"type": "Feature", "geometry": {"type": "Point", "coordinates": [16.633913740556668, 49.20819752693333]}, "properties": {"Album": "Pictures", "Album2": "Sebastien", "Name": "20221006_171600.jpg", "Date": "2022-10-06 17:16:00"}}, {"type": "Feature", "geometry": {"type": "Point", "coordinates": [16.648645867305557, 49.22813644840278]}, "properties": {"Album": "Pictures", "Album2": "Sebastien", "Name": "20221016_155300.jpg", "Date": "2022-10-16 15:53:00"}}, {"type": "Feature", "geometry": {"type": "Point", "coordinates": [16.648409833944445, 49.227737939030554]}, "properties": {"Album": "Pictures", "Album2": "Sebastien", "Name": "20221016_155800.jpg", "Date": "2022-10-16 15:58:00"}}, {"type": "Feature", "geometry": {"type": "Point", "coordinates": [16.642083108180554, 49.21143335758055]}, "properties": {"Album": "Pictures", "Album2": "Sebastien", "Name": "20221108_175429.jpg", "Date": "2022-11-08 17:54:29"}}, {"type": "Feature", "geometry": {"type": "Point", "coordinates": [16.640913222252777, 49.22636909996667]}, "properties": {"Album": "Pictures", "Album2": "Sebastien", "Name": "20221112_140200.jpg", "Date": "2022-11-12 14:02:00"}}, {"type": "Feature", "geometry": {"type": "Point", "coordinates": [16.642083108180554, 49.21143335758055]}, "properties": {"Album": "Pictures", "Album2": "Sebastien", "Name": "20221113_095746.jpg", "Date": "2022-11-13 09:57:46"}}, {"type": "Feature", "geometry": {"type": "Point", "coordinates": [16.642083108180554, 49.21143335758055]}, "properties": {"Album": "Pictures", "Album2": "Sebastien", "Name": "20221120_150300.jpg", "Date": "2022-11-20 15:03:00"}}, {"type": "Feature", "geometry": {"type": "Point", "coordinates": [16.642083108180554, 49.21143335758055]}, "properties": {"Album": "Pictures", "Album2": "Sebastien", "Name": "20230102_192400.jpg", "Date": "2023-01-02 19:24:00"}}, {"type": "Feature", "geometry": {"type": "Point", "coordinates": [16.642083108180554, 49.21143335758055]}, "properties": {"Album": "Pictures", "Album2": "Sebastien", "Name": "20230108_134100.jpg", "Date": "2023-01-08 13:41:00"}}, {"type": "Feature", "geometry": {"type": "Point", "coordinates": [16.642083108180554, 49.21143335758055]}, "properties": {"Album": "Pictures", "Album2": "Sebastien", "Name": "20230115_141100.jpg", "Date": "2023-01-15 14:11:00"}}, {"type": "Feature", "geometry": {"type": "Point", "coordinates": [16.642083108180554, 49.21143335758055]}, "properties": {"Album": "Pictures", "Album2": "Sebastien", "Name": "20230125_175600.jpg", "Date": "2023-01-25 17:56:00"}}, {"type": "Feature", "geometry": {"type": "Point", "coordinates": [16.642083108180554, 49.21143335758055]}, "properties": {"Album": "Pictures", "Album2": "Sebastien", "Name": "20230125_175601.jpg", "Date": "2023-01-25 17:56:01"}}, {"type": "Feature", "geometry": {"type": "Point", "coordinates": [16.642083108180554, 49.21143335758055]}, "properties": {"Album": "Pictures", "Album2": "Sebastien", "Name": "20230126_203457.jpg", "Date": "2023-01-26 20:34:57"}}, {"type": "Feature", "geometry": {"type": "Point", "coordinates": [16.642083108180554, 49.21143335758055]}, "properties": {"Album": "Pictures", "Album2": "Sebastien", "Name": "20230129_134700.jpg", "Date": "2023-01-29 13:47:00"}}, {"type": "Feature", "geometry": {"type": "Point", "coordinates": [16.642083108180554, 49.21143335758055]}, "properties": {"Album": "Pictures", "Album2": "Sebastien", "Name": "20230215_142600.jpg", "Date": "2023-02-15 14:26:00"}}, {"type": "Feature", "geometry": {"type": "Point", "coordinates": [16.642083108180554, 49.21143335758055]}, "properties": {"Album": "Pictures", "Album2": "Sebastien", "Name": "20230405_070700.jpg", "Date": "2023-04-05 07:07:00"}}, {"type": "Feature", "geometry": {"type": "Point", "coordinates": [16.642083108180554, 49.21143335758055]}, "properties": {"Album": "Pictures", "Album2": "Sebastien", "Name": "20230406_192400.jpg", "Date": "2023-04-06 19:24:00"}}, {"type": "Feature", "geometry": {"type": "Point", "coordinates": [16.642083108180554, 49.21143335758055]}, "properties": {"Album": "Pictures", "Album2": "Sebastien", "Name": "20230501_171900.jpg", "Date": "2023-05-01 17:19:00"}}, {"type": "Feature", "geometry": {"type": "Point", "coordinates": [16.642083108180554, 49.21143335758055]}, "properties": {"Album": "Pictures", "Album2": "Sebastien", "Name": "20230520_084600.jpg", "Date": "2023-05-20 08:46:00"}}, {"type": "Feature", "geometry": {"type": "Point", "coordinates": [16.642104201925, 49.21144265588889]}, "properties": {"Album": "Pictures", "Album2": "Sebastien", "Name": "20230521_104500.JPG", "Date": "2023-05-21 10:45:00"}}, {"type": "Feature", "geometry": {"type": "Point", "coordinates": [16.642083108180554, 49.21143335758055]}, "properties": {"Album": "Pictures", "Album2": "Sebastien", "Name": "20230526_104500.jpg", "Date": "2023-05-26 10:45:00"}}, {"type": "Feature", "geometry": {"type": "Point", "coordinates": [16.635443404397222, 49.20783742715833]}, "properties": {"Album": "Pictures", "Album2": "Sebastien", "Name": "20230527_153800.jpg", "Date": "2023-05-27 15:38:00"}}, {"type": "Feature", "geometry": {"type": "Point", "coordinates": [16.635158235552776, 49.20764136152222]}, "properties": {"Album": "Pictures", "Album2": "Sebastien", "Name": "20230607_090700.jpg", "Date": "2023-06-07 09:07:00"}}, {"type": "Feature", "geometry": {"type": "Point", "coordinates": [16.635713866719446, 49.20764327362778]}, "properties": {"Album": "Pictures", "Album2": "Sebastien", "Name": "20230617_110000.jpg", "Date": "2023-06-17 11:00:00"}}, {"type": "Feature", "geometry": {"type": "Point", "coordinates": [16.62076116347222, 49.25823577561667]}, "properties": {"Album": "Pictures", "Album2": "Sebastien", "Name": "20230617_175000.jpg", "Date": "2023-06-17 17:50:00"}}, {"type": "Feature", "geometry": {"type": "Point", "coordinates": [16.62076116347222, 49.25823577561667]}, "properties": {"Album": "Pictures", "Album2": "Sebastien", "Name": "20230617_175001.jpg", "Date": "2023-06-17 17:50:01"}}, {"type": "Feature", "geometry": {"type": "Point", "coordinates": [16.642083108180554, 49.21143335758055]}, "properties": {"Album": "Pictures", "Album2": "Sebastien", "Name": "20230618_143300.jpg", "Date": "2023-06-18 14:33:00"}}, {"type": "Feature", "geometry": {"type": "Point", "coordinates": [16.642083108180554, 49.21143335758055]}, "properties": {"Album": "Pictures", "Album2": "Sebastien", "Name": "20230619_144600.jpg", "Date": "2023-06-19 14:46:00"}}, {"type": "Feature", "geometry": {"type": "Point", "coordinates": [16.63956977016111, 49.21260347277778]}, "properties": {"Album": "Pictures", "Album2": "Sebastien", "Name": "20230816_180000.jpg", "Date": "2023-08-16 18:00:00"}}, {"type": "Feature", "geometry": {"type": "Point", "coordinates": [16.63956977016111, 49.21260347277778]}, "properties": {"Album": "Pictures", "Album2": "Sebastien", "Name": "20230816_180001.jpg", "Date": "2023-08-16 18:00:01"}}, {"type": "Feature", "geometry": {"type": "Point", "coordinates": [16.639557386844444, 49.21229518958334]}, "properties": {"Album": "Pictures", "Album2": "Sebastien", "Name": "20230816_180003.jpg", "Date": "2023-08-16 18:00:03"}}, {"type": "Feature", "geometry": {"type": "Point", "coordinates": [16.639557386844444, 49.21229518958334]}, "properties": {"Album": "Pictures", "Album2": "Sebastien", "Name": "20230816_180006.jpg", "Date": "2023-08-16 18:00:06"}}, {"type": "Feature", "geometry": {"type": "Point", "coordinates": [16.639557386844444, 49.21229518958334]}, "properties": {"Album": "Pictures", "Album2": "Sebastien", "Name": "20230816_180010.jpg", "Date": "2023-08-16 18:00:10"}}, {"type": "Feature", "geometry": {"type": "Point", "coordinates": [16.639557386844444, 49.21229518958334]}, "properties": {"Album": "Pictures", "Album2": "Sebastien", "Name": "20230816_180015.jpg", "Date": "2023-08-16 18:00:15"}}, {"type": "Feature", "geometry": {"type": "Point", "coordinates": [16.605809786983333, 49.18075352511111]}, "properties": {"Album": "Pictures", "Album2": "Sebastien", "Name": "20230817_180400.jpg", "Date": "2023-08-17 18:04:00"}}, {"type": "Feature", "geometry": {"type": "Point", "coordinates": [16.605809786983333, 49.18075352511111]}, "properties": {"Album": "Pictures", "Album2": "Sebastien", "Name": "20230817_180401.jpg", "Date": "2023-08-17 18:04:01"}}, {"type": "Feature", "geometry": {"type": "Point", "coordinates": [16.605809786983333, 49.18075352511111]}, "properties": {"Album": "Pictures", "Album2": "Sebastien", "Name": "20230817_180403.jpg", "Date": "2023-08-17 18:04:03"}}, {"type": "Feature", "geometry": {"type": "Point", "coordinates": [16.605809786983333, 49.18075352511111]}, "properties": {"Album": "Pictures", "Album2": "Sebastien", "Name": "20230817_180406.jpg", "Date": "2023-08-17 18:04:06"}}, {"type": "Feature", "geometry": {"type": "Point", "coordinates": [16.605809786983333, 49.18075352511111]}, "properties": {"Album": "Pictures", "Album2": "Sebastien", "Name": "20230817_180410.jpg", "Date": "2023-08-17 18:04:10"}}, {"type": "Feature", "geometry": {"type": "Point", "coordinates": [16.642083108180554, 49.21143335758055]}, "properties": {"Album": "Pictures", "Album2": "Sebastien", "Name": "20230826_170500.jpg", "Date": "2023-08-26 17:05:00"}}, {"type": "Feature", "geometry": {"type": "Point", "coordinates": [16.691711533611112, 49.154219357975]}, "properties": {"Album": "Pictures", "Album2": "Sebastien", "Name": "20230924_103800.jpg", "Date": "2023-09-24 10:38:00"}}, {"type": "Feature", "geometry": {"type": "Point", "coordinates": [16.64220161509722, 49.2114277624]}, "properties": {"Album": "Pictures", "Album2": "Sebastien", "Name": "20230925_170400.jpg", "Date": "2023-09-25 17:04:00"}}, {"type": "Feature", "geometry": {"type": "Point", "coordinates": [16.64220161509722, 49.2114277624]}, "properties": {"Album": "Pictures", "Album2": "Sebastien", "Name": "20230925_170401.jpg", "Date": "2023-09-25 17:04:01"}}, {"type": "Feature", "geometry": {"type": "Point", "coordinates": [16.64220161509722, 49.2114277624]}, "properties": {"Album": "Pictures", "Album2": "Sebastien", "Name": "20230925_170403.jpg", "Date": "2023-09-25 17:04:03"}}, {"type": "Feature", "geometry": {"type": "Point", "coordinates": [16.634074896285, 49.208175493130554]}, "properties": {"Album": "Pictures", "Album2": "Sebastien", "Name": "20230926_175200.jpg", "Date": "2023-09-26 17:52:00"}}, {"type": "Feature", "geometry": {"type": "Point", "coordinates": [16.641346879902777, 49.213866825194444]}, "properties": {"Album": "Pictures", "Album2": "Sebastien", "Name": "20230930_105500.jpg", "Date": "2023-09-30 10:55:00"}}, {"type": "Feature", "geometry": {"type": "Point", "coordinates": [16.641558157275, 49.21285927277778]}, "properties": {"Album": "Pictures", "Album2": "Sebastien", "Name": "20230930_105501.jpg", "Date": "2023-09-30 10:55:01"}}, {"type": "Feature", "geometry": {"type": "Point", "coordinates": [16.656259215791668, 49.19669184172222]}, "properties": {"Album": "Pictures", "Album2": "Sebastien", "Name": "20231001_144000.jpg", "Date": "2023-10-01 14:40:00"}}, {"type": "Feature", "geometry": {"type": "Point", "coordinates": [16.642079121694444, 49.21142372860555]}, "properties": {"Album": "Pictures", "Album2": "Sebastien", "Name": "20231013_172400.jpg", "Date": "2023-10-13 17:24:00"}}, {"type": "Feature", "geometry": {"type": "Point", "coordinates": [16.642079121694444, 49.21142372860555]}, "properties": {"Album": "Pictures", "Album2": "Sebastien", "Name": "20231013_172401.jpg", "Date": "2023-10-13 17:24:01"}}, {"type": "Feature", "geometry": {"type": "Point", "coordinates": [16.635619978997223, 49.20802607979722]}, "properties": {"Album": "Pictures", "Album2": "Sebastien", "Name": "20231014_105800.jpg", "Date": "2023-10-14 10:58:00"}}, {"type": "Feature", "geometry": {"type": "Point", "coordinates": [16.642081513208332, 49.211427208425]}, "properties": {"Album": "Pictures", "Album2": "Sebastien", "Name": "20231015_105700.jpg", "Date": "2023-10-15 10:57:00"}}, {"type": "Feature", "geometry": {"type": "Point", "coordinates": [16.642081513208332, 49.211427208425]}, "properties": {"Album": "Pictures", "Album2": "Sebastien", "Name": "20231015_105701.jpg", "Date": "2023-10-15 10:57:01"}}, {"type": "Feature", "geometry": {"type": "Point", "coordinates": [16.639667281911112, 49.21240429847222]}, "properties": {"Album": "Pictures", "Album2": "Sebastien", "Name": "20231021_173500.jpg", "Date": "2023-10-21 17:35:00"}}, {"type": "Feature", "geometry": {"type": "Point", "coordinates": [16.639335019369444, 49.21262690480555]}, "properties": {"Album": "Pictures", "Album2": "Sebastien", "Name": "20231021_173501.jpg", "Date": "2023-10-21 17:35:01"}}, {"type": "Feature", "geometry": {"type": "Point", "coordinates": [16.640057394816665, 49.2127989925]}, "properties": {"Album": "Pictures", "Album2": "Sebastien", "Name": "20231022_171800.jpg", "Date": "2023-10-22 17:18:00"}}, {"type": "Feature", "geometry": {"type": "Point", "coordinates": [16.640892904344444, 49.21374075116667]}, "properties": {"Album": "Pictures", "Album2": "Sebastien", "Name": "20231022_171801.jpg", "Date": "2023-10-22 17:18:01"}}, {"type": "Feature", "geometry": {"type": "Point", "coordinates": [16.64094203571111, 49.213789031333334]}, "properties": {"Album": "Pictures", "Album2": "Sebastien", "Name": "20231022_171803.jpg", "Date": "2023-10-22 17:18:03"}}, {"type": "Feature", "geometry": {"type": "Point", "coordinates": [16.637614942094444, 49.20990791502222]}, "properties": {"Album": "Pictures", "Album2": "Sebastien", "Name": "20231029_162400.jpg", "Date": "2023-10-29 16:24:00"}}, {"type": "Feature", "geometry": {"type": "Point", "coordinates": [16.637614942094444, 49.20990791502222]}, "properties": {"Album": "Pictures", "Album2": "Sebastien", "Name": "20231029_162401.jpg", "Date": "2023-10-29 16:24:01"}}, {"type": "Feature", "geometry": {"type": "Point", "coordinates": [16.60909612068889, 49.20642051251111]}, "properties": {"Album": "Pictures", "Album2": "Sebastien", "Name": "20231030_164000.jpg", "Date": "2023-10-30 16:40:00"}}, {"type": "Feature", "geometry": {"type": "Point", "coordinates": [16.60823514562222, 49.20813465240278]}, "properties": {"Album": "Pictures", "Album2": "Sebastien", "Name": "20231030_164001.jpg", "Date": "2023-10-30 16:40:01"}}, {"type": "Feature", "geometry": {"type": "Point", "coordinates": [16.60835474647778, 49.208172482030555]}, "properties": {"Album": "Pictures", "Album2": "Sebastien", "Name": "20231030_164003.jpg", "Date": "2023-10-30 16:40:03"}}, {"type": "Feature", "geometry": {"type": "Point", "coordinates": [16.642083108180554, 49.21143335758055]}, "properties": {"Album": "Pictures", "Album2": "Sebastien", "Name": "20231119_162000.jpg", "Date": "2023-11-19 16:20:00"}}, {"type": "Feature", "geometry": {"type": "Point", "coordinates": [16.642083108180554, 49.21143335758055]}, "properties": {"Album": "Pictures", "Album2": "Sebastien", "Name": "20231120_185600.jpg", "Date": "2023-11-20 18:56:00"}}, {"type": "Feature", "geometry": {"type": "Point", "coordinates": [16.642049582858334, 49.211459159458336]}, "properties": {"Album": "Pictures", "Album2": "Sebastien", "Name": "20231204_183200.JPG", "Date": "2023-12-04 18:32:00"}}, {"type": "Feature", "geometry": {"type": "Point", "coordinates": [16.642107437216666, 49.211424373108336]}, "properties": {"Album": "Pictures", "Album2": "Sebastien", "Name": "20231218_171200.jpg", "Date": "2023-12-18 17:12:00"}}, {"type": "Feature", "geometry": {"type": "Point", "coordinates": [16.642107437216666, 49.211424373108336]}, "properties": {"Album": "Pictures", "Album2": "Sebastien", "Name": "20231218_171201.jpg", "Date": "2023-12-18 17:12:01"}}, {"type": "Feature", "geometry": {"type": "Point", "coordinates": [16.54118912538611, 49.19319739220833]}, "properties": {"Album": "Pictures", "Album2": "Sebastien", "Name": "20231229_172700.jpg", "Date": "2023-12-29 17:27:00"}}, {"type": "Feature", "geometry": {"type": "Point", "coordinates": [16.54118912538611, 49.19319739220833]}, "properties": {"Album": "Pictures", "Album2": "Sebastien", "Name": "20231229_172701.jpg", "Date": "2023-12-29 17:27:01"}}, {"type": "Feature", "geometry": {"type": "Point", "coordinates": [16.54118912538611, 49.19319739220833]}, "properties": {"Album": "Pictures", "Album2": "Sebastien", "Name": "20231229_172703.jpg", "Date": "2023-12-29 17:27:03"}}, {"type": "Feature", "geometry": {"type": "Point", "coordinates": [16.64203495276111, 49.21143887943055]}, "properties": {"Album": "Pictures", "Album2": "Sebastien", "Name": "20240124_182700.JPG", "Date": "2024-01-24 18:27:00"}}, {"type": "Feature", "geometry": {"type": "Point", "coordinates": [16.64203495276111, 49.21143887943055]}, "properties": {"Album": "Pictures", "Album2": "Sebastien", "Name": "20240124_182701.JPG", "Date": "2024-01-24 18:27:01"}}, {"type": "Feature", "geometry": {"type": "Point", "coordinates": [16.64211023714722, 49.21140773477222]}, "properties": {"Album": "Pictures", "Album2": "Sebastien", "Name": "20240127_122800.jpg", "Date": "2024-01-27 12:28:00"}}, {"type": "Feature", "geometry": {"type": "Point", "coordinates": [16.64109916526389, 49.21357008308333]}, "properties": {"Album": "Pictures", "Album2": "Sebastien", "Name": "20240128_160700.jpg", "Date": "2024-01-28 16:07:00"}}, {"type": "Feature", "geometry": {"type": "Point", "coordinates": [16.64211166666667, 49.21144833333334]}, "properties": {"Album": "Pictures", "Album2": "Sebastien", "Name": "20240211_083000.jpg", "Date": "2024-02-11 08:30:00"}}, {"type": "Feature", "geometry": {"type": "Point", "coordinates": [16.597742391944443, 49.20803014253333]}, "properties": {"Album": "Pictures", "Album2": "Sebastien", "Name": "20240212_094500.jpg", "Date": "2024-02-12 09:45:00"}}, {"type": "Feature", "geometry": {"type": "Point", "coordinates": [16.597742391944443, 49.20803014253333]}, "properties": {"Album": "Pictures", "Album2": "Sebastien", "Name": "20240212_094501.jpg", "Date": "2024-02-12 09:45:01"}}, {"type": "Feature", "geometry": {"type": "Point", "coordinates": [16.597742391944443, 49.20803014253333]}, "properties": {"Album": "Pictures", "Album2": "Sebastien", "Name": "20240212_094502.jpg", "Date": "2024-02-12 09:45:02"}}, {"type": "Feature", "geometry": {"type": "Point", "coordinates": [16.627125, 49.15788333333333]}, "properties": {"Album": "Pictures", "Album2": "Sebastien", "Name": "20240224_095300.jpg", "Date": "2024-02-24 09:53:00"}}, {"type": "Feature", "geometry": {"type": "Point", "coordinates": [16.648113333333335, 49.22810333333334]}, "properties": {"Album": "Pictures", "Album2": "Sebastien", "Name": "20240229_171500.jpg", "Date": "2024-02-29 17:15:00"}}, {"type": "Feature", "geometry": {"type": "Point", "coordinates": [16.642086666666668, 49.211475]}, "properties": {"Album": "Pictures", "Album2": "Sebastien", "Name": "20240302_105200.jpg", "Date": "2024-03-02 10:52:00"}}, {"type": "Feature", "geometry": {"type": "Point", "coordinates": [16.642101666666665, 49.21146]}, "properties": {"Album": "Pictures", "Album2": "Sebastien", "Name": "20240304_182300.jpg", "Date": "2024-03-04 18:23:00"}}, {"type": "Feature", "geometry": {"type": "Point", "coordinates": [16.642105, 49.21144833333334]}, "properties": {"Album": "Pictures", "Album2": "Sebastien", "Name": "20240308_175300.jpg", "Date": "2024-03-08 17:53:00"}}, {"type": "Feature", "geometry": {"type": "Point", "coordinates": [16.642676996869444, 49.22700685848889]}, "properties": {"Album": "Pictures", "Album2": "Sebastien", "Name": "20240330_170800.jpg", "Date": "2024-03-30 17:08:00"}}, {"type": "Feature", "geometry": {"type": "Point", "coordinates": [16.64103320725278, 49.21349424369444]}, "properties": {"Album": "Pictures", "Album2": "Sebastien", "Name": "20240401_155800.jpg", "Date": "2024-04-01 15:58:00"}}, {"type": "Feature", "geometry": {"type": "Point", "coordinates": [16.635533631641668, 49.207897708625]}, "properties": {"Album": "Pictures", "Album2": "Sebastien", "Name": "20240410_184800.jpg", "Date": "2024-04-10 18:48:00"}}, {"type": "Feature", "geometry": {"type": "Point", "coordinates": [16.635533631641668, 49.207897708625]}, "properties": {"Album": "Pictures", "Album2": "Sebastien", "Name": "20240411_180100.jpg", "Date": "2024-04-11 18:01:00"}}, {"type": "Feature", "geometry": {"type": "Point", "coordinates": [16.60787748453889, 49.20798243163333]}, "properties": {"Album": "Pictures", "Album2": "Sebastien", "Name": "20240412_173800.jpg", "Date": "2024-04-12 17:38:00"}}, {"type": "Feature", "geometry": {"type": "Point", "coordinates": [16.648590963277776, 49.22818399080833]}, "properties": {"Album": "Pictures", "Album2": "Sebastien", "Name": "20240414_105900.jpg", "Date": "2024-04-14 10:59:00"}}, {"type": "Feature", "geometry": {"type": "Point", "coordinates": [16.648597776166667, 49.228172349975]}, "properties": {"Album": "Pictures", "Album2": "Sebastien", "Name": "20240414_105901.jpg", "Date": "2024-04-14 10:59:01"}}, {"type": "Feature", "geometry": {"type": "Point", "coordinates": [16.654719737533334, 49.207606729355554]}, "properties": {"Album": "Pictures", "Album2": "Sebastien", "Name": "20240414_162200.jpg", "Date": "2024-04-14 16:22:00"}}, {"type": "Feature", "geometry": {"type": "Point", "coordinates": [16.653752352116665, 49.20762548136111]}, "properties": {"Album": "Pictures", "Album2": "Sebastien", "Name": "20240414_162201.jpg", "Date": "2024-04-14 16:22:01"}}, {"type": "Feature", "geometry": {"type": "Point", "coordinates": [16.653652508677776, 49.20764292593056]}, "properties": {"Album": "Pictures", "Album2": "Sebastien", "Name": "20240414_162203.jpg", "Date": "2024-04-14 16:22:03"}}, {"type": "Feature", "geometry": {"type": "Point", "coordinates": [16.650284875013334, 49.207666960055555]}, "properties": {"Album": "Pictures", "Album2": "Sebastien", "Name": "20240414_162206.jpg", "Date": "2024-04-14 16:22:06"}}, {"type": "Feature", "geometry": {"type": "Point", "coordinates": [16.639795975869443, 49.205830162961114]}, "properties": {"Album": "Pictures", "Album2": "Sebastien", "Name": "20240504_184600.jpg", "Date": "2024-05-04 18:46:00"}}, {"type": "Feature", "geometry": {"type": "Point", "coordinates": [16.642129377791665, 49.21143087671667]}, "properties": {"Album": "Pictures", "Album2": "Sebastien", "Name": "20240508_185500.jpg", "Date": "2024-05-08 18:55:00"}}, {"type": "Feature", "geometry": {"type": "Point", "coordinates": [16.607221666666668, 49.089198333333336]}, "properties": {"Album": "Pictures", "Album2": "Sebastien", "Name": "20240519_092500.jpg", "Date": "2024-05-19 09:25:00"}}, {"type": "Feature", "geometry": {"type": "Point", "coordinates": [16.607658333333333, 49.089043333333336]}, "properties": {"Album": "Pictures", "Album2": "Sebastien", "Name": "20240519_094400.jpg", "Date": "2024-05-19 09:44:00"}}, {"type": "Feature", "geometry": {"type": "Point", "coordinates": [16.607070113633334, 49.089116122325]}, "properties": {"Album": "Pictures", "Album2": "Sebastien", "Name": "20240519_094900.jpg", "Date": "2024-05-19 09:49:00"}}, {"type": "Feature", "geometry": {"type": "Point", "coordinates": [16.608475, 49.08891666666667]}, "properties": {"Album": "Pictures", "Album2": "Sebastien", "Name": "20240519_102400.jpg", "Date": "2024-05-19 10:24:00"}}, {"type": "Feature", "geometry": {"type": "Point", "coordinates": [16.641136666666668, 49.21141333333333]}, "properties": {"Album": "Pictures", "Album2": "Sebastien", "Name": "20240524_182600.jpg", "Date": "2024-05-24 18:26:00"}}, {"type": "Feature", "geometry": {"type": "Point", "coordinates": [16.642136666666666, 49.21141333333333]}, "properties": {"Album": "Pictures", "Album2": "Sebastien", "Name": "20240525_064000.jpg", "Date": "2024-05-25 06:40:00"}}, {"type": "Feature", "geometry": {"type": "Point", "coordinates": [16.642083333333332, 49.21146]}, "properties": {"Album": "Pictures", "Album2": "Sebastien", "Name": "20240529_200000.jpg", "Date": "2024-05-29 20:00:00"}}, {"type": "Feature", "geometry": {"type": "Point", "coordinates": [16.606729000375, 49.19899123747222]}, "properties": {"Album": "Pictures", "Album2": "Sebastien", "Name": "20240530_161200.jpg", "Date": "2024-05-30 16:12:00"}}, {"type": "Feature", "geometry": {"type": "Point", "coordinates": [16.606729000375, 49.19899123747222]}, "properties": {"Album": "Pictures", "Album2": "Sebastien", "Name": "20240530_161201.jpg", "Date": "2024-05-30 16:12:01"}}, {"type": "Feature", "geometry": {"type": "Point", "coordinates": [16.606729000375, 49.19899123747222]}, "properties": {"Album": "Pictures", "Album2": "Sebastien", "Name": "20240530_161203.jpg", "Date": "2024-05-30 16:12:03"}}, {"type": "Feature", "geometry": {"type": "Point", "coordinates": [16.606729000375, 49.19899123747222]}, "properties": {"Album": "Pictures", "Album2": "Sebastien", "Name": "20240530_161206.jpg", "Date": "2024-05-30 16:12:06"}}, {"type": "Feature", "geometry": {"type": "Point", "coordinates": [16.641901666666666, 49.215556666666664]}, "properties": {"Album": "Pictures", "Album2": "Sebastien", "Name": "20240531_173100.jpg", "Date": "2024-05-31 17:31:00"}}, {"type": "Feature", "geometry": {"type": "Point", "coordinates": [16.636597889455555, 49.20769262566667]}, "properties": {"Album": "Pictures", "Album2": "Sebastien", "Name": "20240601_110500.jpg", "Date": "2024-06-01 11:05:00"}}, {"type": "Feature", "geometry": {"type": "Point", "coordinates": [16.636597889455555, 49.20769262566667]}, "properties": {"Album": "Pictures", "Album2": "Sebastien", "Name": "20240601_110501.jpg", "Date": "2024-06-01 11:05:01"}}, {"type": "Feature", "geometry": {"type": "Point", "coordinates": [16.636597889455555, 49.20769262566667]}, "properties": {"Album": "Pictures", "Album2": "Sebastien", "Name": "20240601_110503.jpg", "Date": "2024-06-01 11:05:03"}}, {"type": "Feature", "geometry": {"type": "Point", "coordinates": [16.628333333333334, 49.15602833333333]}, "properties": {"Album": "Pictures", "Album2": "Sebastien", "Name": "20240606_170500.jpg", "Date": "2024-06-06 17:05:00"}}, {"type": "Feature", "geometry": {"type": "Point", "coordinates": [16.610281666666666, 49.20483]}, "properties": {"Album": "Pictures", "Album2": "Sebastien", "Name": "20240607_161600.jpg", "Date": "2024-06-07 16:16:00"}}, {"type": "Feature", "geometry": {"type": "Point", "coordinates": [16.642063333333333, 49.21144833333334]}, "properties": {"Album": "Pictures", "Album2": "Sebastien", "Name": "20240607_195300.jpg", "Date": "2024-06-07 19:53:00"}}, {"type": "Feature", "geometry": {"type": "Point", "coordinates": [16.64209808907222, 49.21145028635556]}, "properties": {"Album": "Pictures", "Album2": "Sebastien", "Name": "20240613_184200.jpg", "Date": "2024-06-13 18:42:00"}}, {"type": "Feature", "geometry": {"type": "Point", "coordinates": [16.60422005433611, 49.20731620856667]}, "properties": {"Album": "Pictures", "Album2": "Sebastien", "Name": "20240614_155300.jpg", "Date": "2024-06-14 15:53:00"}}, {"type": "Feature", "geometry": {"type": "Point", "coordinates": [16.63983, 49.204735]}, "properties": {"Album": "Pictures", "Album2": "Sebastien", "Name": "20240616_165200.jpg", "Date": "2024-06-16 16:52:00"}}, {"type": "Feature", "geometry": {"type": "Point", "coordinates": [16.635316666666668, 49.20784]}, "properties": {"Album": "Pictures", "Album2": "Sebastien", "Name": "20240626_172300.jpg", "Date": "2024-06-26 17:23:00"}}, {"type": "Feature", "geometry": {"type": "Point", "coordinates": [16.610046666666666, 49.19869166666667]}, "properties": {"Album": "Pictures", "Album2": "Sebastien", "Name": "20240627_170000.jpg", "Date": "2024-06-27 17:00:00"}}, {"type": "Feature", "geometry": {"type": "Point", "coordinates": [16.642115, 49.211436666666664]}, "properties": {"Album": "Pictures", "Album2": "Sebastien", "Name": "20240720_065634.jpg", "Date": "2024-07-20 06:56:34"}}, {"type": "Feature", "geometry": {"type": "Point", "coordinates": [16.642116666666666, 49.21143333333333]}, "properties": {"Album": "Pictures", "Album2": "Sebastien", "Name": "20240720_115954.jpg", "Date": "2024-07-20 11:59:54"}}, {"type": "Feature", "geometry": {"type": "Point", "coordinates": [16.642131666666668, 49.21143333333333]}, "properties": {"Album": "Pictures", "Album2": "Sebastien", "Name": "20240721_085101.jpg", "Date": "2024-07-21 08:51:01"}}, {"type": "Feature", "geometry": {"type": "Point", "coordinates": [16.639679678613888, 49.21238812130556]}, "properties": {"Album": "Pictures", "Album2": "Sebastien", "Name": "20240721_105403.jpg", "Date": "2024-07-21 10:54:03"}}, {"type": "Feature", "geometry": {"type": "Point", "coordinates": [16.610534934952778, 49.206423175805554]}, "properties": {"Album": "Pictures", "Album2": "Sebastien", "Name": "20240725_170606.jpg", "Date": "2024-07-25 17:06:06"}}, {"type": "Feature", "geometry": {"type": "Point", "coordinates": [16.610516803122223, 49.20613012900556]}, "properties": {"Album": "Pictures", "Album2": "Sebastien", "Name": "20240725_173053.jpg", "Date": "2024-07-25 17:30:53"}}, {"type": "Feature", "geometry": {"type": "Point", "coordinates": [16.635356327625, 49.207704491933335]}, "properties": {"Album": "Pictures", "Album2": "Sebastien", "Name": "20240803_090044.jpg", "Date": "2024-08-03 09:00:44"}}, {"type": "Feature", "geometry": {"type": "Point", "coordinates": [16.591611666666665, 49.189613333333334]}, "properties": {"Album": "Pictures", "Album2": "Sebastien", "Name": "20240809_165600.jpg", "Date": "2024-08-09 16:56:00"}}, {"type": "Feature", "geometry": {"type": "Point", "coordinates": [16.64212, 49.21143]}, "properties": {"Album": "Pictures", "Album2": "Sebastien", "Name": "20240817_080352.jpg", "Date": "2024-08-17 08:03:52"}}, {"type": "Feature", "geometry": {"type": "Point", "coordinates": [16.652188333333335, 49.20773666666667]}, "properties": {"Album": "Pictures", "Album2": "Sebastien", "Name": "20240817_154442.jpg", "Date": "2024-08-17 15:44:42"}}, {"type": "Feature", "geometry": {"type": "Point", "coordinates": [16.652373333333333, 49.207721666666664]}, "properties": {"Album": "Pictures", "Album2": "Sebastien", "Name": "20240817_161944.jpg", "Date": "2024-08-17 16:19:44"}}, {"type": "Feature", "geometry": {"type": "Point", "coordinates": [16.641326666666668, 49.21423]}, "properties": {"Album": "Pictures", "Album2": "Sebastien", "Name": "20240829_170758.jpg", "Date": "2024-08-29 17:07:58"}}, {"type": "Feature", "geometry": {"type": "Point", "coordinates": [16.60560052801111, 49.19689981063889]}, "properties": {"Album": "Pictures", "Album2": "Sebastien", "Name": "20240830_155949.jpg", "Date": "2024-08-30 15:59:49"}}, {"type": "Feature", "geometry": {"type": "Point", "coordinates": [16.602026697730555, 49.19403638836389]}, "properties": {"Album": "Pictures", "Album2": "Sebastien", "Name": "20240830_163815.jpg", "Date": "2024-08-30 16:38:15"}}, {"type": "Feature", "geometry": {"type": "Point", "coordinates": [16.359488207019446, 49.186781079508336]}, "properties": {"Album": "Pictures", "Album2": "Sebastien", "Name": "20240831_101039.jpg", "Date": "2024-08-31 10:10:39"}}, {"type": "Feature", "geometry": {"type": "Point", "coordinates": [16.359458264336112, 49.18676780681945]}, "properties": {"Album": "Pictures", "Album2": "Sebastien", "Name": "20240831_102025.jpg", "Date": "2024-08-31 10:20:25"}}, {"type": "Feature", "geometry": {"type": "Point", "coordinates": [16.872011942455554, 49.15800204195833]}, "properties": {"Album": "Pictures", "Album2": "Sebastien", "Name": "20240831_185302.jpg", "Date": "2024-08-31 18:53:02"}}, {"type": "Feature", "geometry": {"type": "Point", "coordinates": [16.64207605414167, 49.211440594025]}, "properties": {"Album": "Pictures", "Album2": "Sebastien", "Name": "20240901_112027.jpg", "Date": "2024-09-01 11:20:27"}}, {"type": "Feature", "geometry": {"type": "Point", "coordinates": [16.642128333333332, 49.21143333333333]}, "properties": {"Album": "Pictures", "Album2": "Sebastien", "Name": "20240911_172804.jpg", "Date": "2024-09-11 17:28:04"}}, {"type": "Feature", "geometry": {"type": "Point", "coordinates": [16.641862051316668, 49.21113791416666]}, "properties": {"Album": "Pictures", "Album2": "Sebastien", "Name": "20240913_171344.jpg", "Date": "2024-09-13 17:13:44"}}, {"type": "Feature", "geometry": {"type": "Point", "coordinates": [16.583671666666667, 49.20480333333333]}, "properties": {"Album": "Pictures", "Album2": "Sebastien", "Name": "20240914_140000.jpg", "Date": "2024-09-14 14:00:00"}}, {"type": "Feature", "geometry": {"type": "Point", "coordinates": [16.642061666666667, 49.21140666666667]}, "properties": {"Album": "Pictures", "Album2": "Sebastien", "Name": "20240914_183756.jpg", "Date": "2024-09-14 18:37:56"}}, {"type": "Feature", "geometry": {"type": "Point", "coordinates": [16.63974333333333, 49.210415]}, "properties": {"Album": "Pictures", "Album2": "Sebastien", "Name": "20240915_170528.jpg", "Date": "2024-09-15 17:05:28"}}, {"type": "Feature", "geometry": {"type": "Point", "coordinates": [16.63974333333333, 49.210415]}, "properties": {"Album": "Pictures", "Album2": "Sebastien", "Name": "20240915_170540.jpg", "Date": "2024-09-15 17:05:40"}}, {"type": "Feature", "geometry": {"type": "Point", "coordinates": [16.617408333333334, 49.176163333333335]}, "properties": {"Album": "Pictures", "Album2": "Sebastien", "Name": "20240920_162011.jpg", "Date": "2024-09-20 16:20:11"}}, {"type": "Feature", "geometry": {"type": "Point", "coordinates": [16.6189, 49.172085]}, "properties": {"Album": "Pictures", "Album2": "Sebastien", "Name": "20240920_174835.jpg", "Date": "2024-09-20 17:48:35"}}, {"type": "Feature", "geometry": {"type": "Point", "coordinates": [16.64216, 49.21143]}, "properties": {"Album": "Pictures", "Album2": "Sebastien", "Name": "20240921_071159.jpg", "Date": "2024-09-21 07:11:59"}}, {"type": "Feature", "geometry": {"type": "Point", "coordinates": [16.64177506325, 49.2116006029]}, "properties": {"Album": "Pictures", "Album2": "Sebastien", "Name": "20241009_171821.jpg", "Date": "2024-10-09 17:18:21"}}, {"type": "Feature", "geometry": {"type": "Point", "coordinates": [16.642277857447223, 49.21142455307778]}, "properties": {"Album": "Pictures", "Album2": "Sebastien", "Name": "20241009_180344.jpg", "Date": "2024-10-09 18:03:44"}}, {"type": "Feature", "geometry": {"type": "Point", "coordinates": [16.642146666666665, 49.211445]}, "properties": {"Album": "Pictures", "Album2": "Sebastien", "Name": "20241010_181118.jpg", "Date": "2024-10-10 18:11:18"}}, {"type": "Feature", "geometry": {"type": "Point", "coordinates": [16.642073333333332, 49.211441666666666]}, "properties": {"Album": "Pictures", "Album2": "Sebastien", "Name": "20241012_120911.jpg", "Date": "2024-10-12 12:09:11"}}, {"type": "Feature", "geometry": {"type": "Point", "coordinates": [16.642123333333334, 49.21145166666667]}, "properties": {"Album": "Pictures", "Album2": "Sebastien", "Name": "20241013_161221.jpg", "Date": "2024-10-13 16:12:21"}}, {"type": "Feature", "geometry": {"type": "Point", "coordinates": [16.642171666666666, 49.211441666666666]}, "properties": {"Album": "Pictures", "Album2": "Sebastien", "Name": "20241013_161304.jpg", "Date": "2024-10-13 16:13:04"}}, {"type": "Feature", "geometry": {"type": "Point", "coordinates": [16.641898333333334, 49.21302333333333]}, "properties": {"Album": "Pictures", "Album2": "Sebastien", "Name": "20241018_160133.jpg", "Date": "2024-10-18 16:01:33"}}, {"type": "Feature", "geometry": {"type": "Point", "coordinates": [16.641911666666665, 49.21302333333333]}, "properties": {"Album": "Pictures", "Album2": "Sebastien", "Name": "20241018_160238.jpg", "Date": "2024-10-18 16:02:38"}}, {"type": "Feature", "geometry": {"type": "Point", "coordinates": [16.640441666666668, 49.21312666666667]}, "properties": {"Album": "Pictures", "Album2": "Sebastien", "Name": "20241018_162529.jpg", "Date": "2024-10-18 16:25:29"}}, {"type": "Feature", "geometry": {"type": "Point", "coordinates": [16.640441666666668, 49.21312666666667]}, "properties": {"Album": "Pictures", "Album2": "Sebastien", "Name": "20241018_162547.jpg", "Date": "2024-10-18 16:25:47"}}, {"type": "Feature", "geometry": {"type": "Point", "coordinates": [16.642056666666665, 49.211365]}, "properties": {"Album": "Pictures", "Album2": "Sebastien", "Name": "20241024_125955.jpg", "Date": "2024-10-24 12:59:55"}}, {"type": "Feature", "geometry": {"type": "Point", "coordinates": [16.642086666666668, 49.211445]}, "properties": {"Album": "Pictures", "Album2": "Sebastien", "Name": "20241024_130121.jpg", "Date": "2024-10-24 13:01:21"}}, {"type": "Feature", "geometry": {"type": "Point", "coordinates": [16.641921666666665, 49.21160833333333]}, "properties": {"Album": "Pictures", "Album2": "Sebastien", "Name": "20241024_164140.jpg", "Date": "2024-10-24 16:41:40"}}, {"type": "Feature", "geometry": {"type": "Point", "coordinates": [16.640263333333333, 49.22591]}, "properties": {"Album": "Pictures", "Album2": "Sebastien", "Name": "20241024_173958.jpg", "Date": "2024-10-24 17:39:58"}}, {"type": "Feature", "geometry": {"type": "Point", "coordinates": [16.640263333333333, 49.22591]}, "properties": {"Album": "Pictures", "Album2": "Sebastien", "Name": "20241024_174000.jpg", "Date": "2024-10-24 17:40:00"}}, {"type": "Feature", "geometry": {"type": "Point", "coordinates": [16.519911549647222, 49.19914227691667]}, "properties": {"Album": "Pictures", "Album2": "Sebastien", "Name": "20241027_090607.jpg", "Date": "2024-10-27 09:06:07"}}, {"type": "Feature", "geometry": {"type": "Point", "coordinates": [16.51984, 49.19920666666667]}, "properties": {"Album": "Pictures", "Album2": "Sebastien", "Name": "20241027_090619.jpg", "Date": "2024-10-27 09:06:19"}}, {"type": "Feature", "geometry": {"type": "Point", "coordinates": [16.519941666666668, 49.19912333333333]}, "properties": {"Album": "Pictures", "Album2": "Sebastien", "Name": "20241027_090745.jpg", "Date": "2024-10-27 09:07:45"}}, {"type": "Feature", "geometry": {"type": "Point", "coordinates": [16.603731792730557, 49.207998559241666]}, "properties": {"Album": "Sebastien", "Album2": "Jesli\u010dky", "Name": "20240118_100000.jpg", "Date": "2024-01-18 10:00:00"}}, {"type": "Feature", "geometry": {"type": "Point", "coordinates": [16.603731792730557, 49.207998559241666]}, "properties": {"Album": "Sebastien", "Album2": "Jesli\u010dky", "Name": "20240118_100001.jpg", "Date": "2024-01-18 10:00:01"}}, {"type": "Feature", "geometry": {"type": "Point", "coordinates": [16.603731792730557, 49.207998559241666]}, "properties": {"Album": "Sebastien", "Album2": "Jesli\u010dky", "Name": "20240118_100003.jpg", "Date": "2024-01-18 10:00:03"}}, {"type": "Feature", "geometry": {"type": "Point", "coordinates": [16.60377854157778, 49.20800874591111]}, "properties": {"Album": "Sebastien", "Album2": "Jesli\u010dky", "Name": "20240307_100000.jpg", "Date": "2024-03-07 10:00:00"}}, {"type": "Feature", "geometry": {"type": "Point", "coordinates": [16.60377854157778, 49.20800874591111]}, "properties": {"Album": "Sebastien", "Album2": "Jesli\u010dky", "Name": "20240307_100001.jpg", "Date": "2024-03-07 10:00:01"}}, {"type": "Feature", "geometry": {"type": "Point", "coordinates": [16.606804599766665, 49.20736082895278]}, "properties": {"Album": "Sebastien", "Album2": "Jesli\u010dky", "Name": "20240322_100000.jpg", "Date": "2024-03-22 10:00:00"}}, {"type": "Feature", "geometry": {"type": "Point", "coordinates": [16.60377854157778, 49.20800874591111]}, "properties": {"Album": "Sebastien", "Album2": "Jesli\u010dky", "Name": "20240322_100001.jpg", "Date": "2024-03-22 10:00:01"}}, {"type": "Feature", "geometry": {"type": "Point", "coordinates": [16.60377854157778, 49.20800874591111]}, "properties": {"Album": "Sebastien", "Album2": "Jesli\u010dky", "Name": "20240322_100003.jpg", "Date": "2024-03-22 10:00:03"}}, {"type": "Feature", "geometry": {"type": "Point", "coordinates": [16.603719887405557, 49.20801591969167]}, "properties": {"Album": "Sebastien", "Album2": "Jesli\u010dky", "Name": "20240411_100000.jpg", "Date": "2024-04-11 10:00:00"}}, {"type": "Feature", "geometry": {"type": "Point", "coordinates": [16.603719887405557, 49.20801591969167]}, "properties": {"Album": "Sebastien", "Album2": "Jesli\u010dky", "Name": "20240411_100001.jpg", "Date": "2024-04-11 10:00:01"}}, {"type": "Feature", "geometry": {"type": "Point", "coordinates": [16.60377327724722, 49.20799364646111]}, "properties": {"Album": "Sebastien", "Album2": "Jesli\u010dky", "Name": "20240418_100000.jpg", "Date": "2024-04-18 10:00:00"}}, {"type": "Feature", "geometry": {"type": "Point", "coordinates": [16.603775055208335, 49.208026356244446]}, "properties": {"Album": "Sebastien", "Album2": "Jesli\u010dky", "Name": "20240502_100000.jpg", "Date": "2024-05-02 10:00:00"}}, {"type": "Feature", "geometry": {"type": "Point", "coordinates": [16.603775055208335, 49.208026356244446]}, "properties": {"Album": "Sebastien", "Album2": "Jesli\u010dky", "Name": "20240502_100001.jpg", "Date": "2024-05-02 10:00:01"}}, {"type": "Feature", "geometry": {"type": "Point", "coordinates": [16.603832096244446, 49.208048086541666]}, "properties": {"Album": "Sebastien", "Album2": "Jesli\u010dky", "Name": "20240506_100000.jpg", "Date": "2024-05-06 10:00:00"}}, {"type": "Feature", "geometry": {"type": "Point", "coordinates": [16.6069085038, 49.20736062045833]}, "properties": {"Album": "Sebastien", "Album2": "Jesli\u010dky", "Name": "20240506_100001.jpg", "Date": "2024-05-06 10:00:01"}}, {"type": "Feature", "geometry": {"type": "Point", "coordinates": [16.60732790116111, 49.207417948980556]}, "properties": {"Album": "Sebastien", "Album2": "Jesli\u010dky", "Name": "20240509_100000.jpg", "Date": "2024-05-09 10:00:00"}}, {"type": "Feature", "geometry": {"type": "Point", "coordinates": [16.603806849555557, 49.20801909309444]}, "properties": {"Album": "Sebastien", "Album2": "Jesli\u010dky", "Name": "20240509_100001.jpg", "Date": "2024-05-09 10:00:01"}}, {"type": "Feature", "geometry": {"type": "Point", "coordinates": [16.603790498644443, 49.2079973867]}, "properties": {"Album": "Sebastien", "Album2": "Jesli\u010dky", "Name": "20240516_100000.jpg", "Date": "2024-05-16 10:00:00"}}, {"type": "Feature", "geometry": {"type": "Point", "coordinates": [16.603790498644443, 49.2079973867]}, "properties": {"Album": "Sebastien", "Album2": "Jesli\u010dky", "Name": "20240516_100001.jpg", "Date": "2024-05-16 10:00:01"}}, {"type": "Feature", "geometry": {"type": "Point", "coordinates": [16.603790498644443, 49.2079973867]}, "properties": {"Album": "Sebastien", "Album2": "Jesli\u010dky", "Name": "20240516_100002.jpg", "Date": "2024-05-16 10:00:02"}}, {"type": "Feature", "geometry": {"type": "Point", "coordinates": [16.603790498644443, 49.2079973867]}, "properties": {"Album": "Sebastien", "Album2": "Jesli\u010dky", "Name": "20240516_100003.jpg", "Date": "2024-05-16 10:00:03"}}, {"type": "Feature", "geometry": {"type": "Point", "coordinates": [16.603854663322224, 49.20796942963333]}, "properties": {"Album": "Sebastien", "Album2": "Jesli\u010dky", "Name": "20240523_100000.jpg", "Date": "2024-05-23 10:00:00"}}, {"type": "Feature", "geometry": {"type": "Point", "coordinates": [16.603854663322224, 49.20796942963333]}, "properties": {"Album": "Sebastien", "Album2": "Jesli\u010dky", "Name": "20240523_100001.jpg", "Date": "2024-05-23 10:00:01"}}, {"type": "Feature", "geometry": {"type": "Point", "coordinates": [16.603760101666666, 49.207958445627774]}, "properties": {"Album": "Sebastien", "Album2": "Jesli\u010dky", "Name": "20240530_100000.jpg", "Date": "2024-05-30 10:00:00"}}, {"type": "Feature", "geometry": {"type": "Point", "coordinates": [16.603760101666666, 49.207958445627774]}, "properties": {"Album": "Sebastien", "Album2": "Jesli\u010dky", "Name": "20240530_100001.jpg", "Date": "2024-05-30 10:00:01"}}, {"type": "Feature", "geometry": {"type": "Point", "coordinates": [16.603760101666666, 49.207958445627774]}, "properties": {"Album": "Sebastien", "Album2": "Jesli\u010dky", "Name": "20240530_100002.jpg", "Date": "2024-05-30 10:00:02"}}, {"type": "Feature", "geometry": {"type": "Point", "coordinates": [16.603786798702778, 49.20797189971389]}, "properties": {"Album": "Sebastien", "Album2": "Jesli\u010dky", "Name": "20240606_100000.jpg", "Date": "2024-06-06 10:00:00"}}, {"type": "Feature", "geometry": {"type": "Point", "coordinates": [16.60715398316389, 49.20736847850278]}, "properties": {"Album": "Sebastien", "Album2": "Jesli\u010dky", "Name": "20240612_100000.jpg", "Date": "2024-06-12 10:00:00"}}, {"type": "Feature", "geometry": {"type": "Point", "coordinates": [16.60679873733333, 49.207475908908336]}, "properties": {"Album": "Sebastien", "Album2": "Jesli\u010dky", "Name": "20240613_100000.jpg", "Date": "2024-06-13 10:00:00"}}, {"type": "Feature", "geometry": {"type": "Point", "coordinates": [16.60788498661389, 49.208010623225]}, "properties": {"Album": "Sebastien", "Album2": "Jesli\u010dky", "Name": "20240613_100001.jpg", "Date": "2024-06-13 10:00:01"}}, {"type": "Feature", "geometry": {"type": "Point", "coordinates": [16.603818576677778, 49.20796604292778]}, "properties": {"Album": "Sebastien", "Album2": "Jesli\u010dky", "Name": "20240627_100000.jpg", "Date": "2024-06-27 10:00:00"}}, {"type": "Feature", "geometry": {"type": "Point", "coordinates": [16.603818576677778, 49.20796604292778]}, "properties": {"Album": "Sebastien", "Album2": "Jesli\u010dky", "Name": "20240627_100001.jpg", "Date": "2024-06-27 10:00:01"}}, {"type": "Feature", "geometry": {"type": "Point", "coordinates": [16.603818576677778, 49.20796604292778]}, "properties": {"Album": "Sebastien", "Album2": "Jesli\u010dky", "Name": "20240627_100002.jpg", "Date": "2024-06-27 10:00:02"}}, {"type": "Feature", "geometry": {"type": "Point", "coordinates": [16.603818576677778, 49.20796604292778]}, "properties": {"Album": "Sebastien", "Album2": "Jesli\u010dky", "Name": "20240627_100003.jpg", "Date": "2024-06-27 10:00:03"}}, {"type": "Feature", "geometry": {"type": "Point", "coordinates": [16.603818576677778, 49.20796604292778]}, "properties": {"Album": "Sebastien", "Album2": "Jesli\u010dky", "Name": "20240628_100000.jpg", "Date": "2024-06-28 10:00:00"}}, {"type": "Feature", "geometry": {"type": "Point", "coordinates": [16.603818576677778, 49.20796604292778]}, "properties": {"Album": "Sebastien", "Album2": "Jesli\u010dky", "Name": "20240628_100001.jpg", "Date": "2024-06-28 10:00:01"}}, {"type": "Feature", "geometry": {"type": "Point", "coordinates": [16.60711123231389, 49.20730364340278]}, "properties": {"Album": "Sebastien", "Album2": "Jesli\u010dky", "Name": "20240711_100000.jpg", "Date": "2024-07-11 10:00:00"}}, {"type": "Feature", "geometry": {"type": "Point", "coordinates": [16.603736907177776, 49.207994336716666]}, "properties": {"Album": "Sebastien", "Album2": "Jesli\u010dky", "Name": "20240711_100001.jpg", "Date": "2024-07-11 10:00:01"}}, {"type": "Feature", "geometry": {"type": "Point", "coordinates": [16.603736907177776, 49.207994336716666]}, "properties": {"Album": "Sebastien", "Album2": "Jesli\u010dky", "Name": "20240711_100002.jpg", "Date": "2024-07-11 10:00:02"}}, {"type": "Feature", "geometry": {"type": "Point", "coordinates": [16.603736907177776, 49.207994336716666]}, "properties": {"Album": "Sebastien", "Album2": "Jesli\u010dky", "Name": "20240711_100003.jpg", "Date": "2024-07-11 10:00:03"}}, {"type": "Feature", "geometry": {"type": "Point", "coordinates": [16.603742828241668, 49.20797968753889]}, "properties": {"Album": "Sebastien", "Album2": "Jesli\u010dky", "Name": "20240716_100000.jpg", "Date": "2024-07-16 10:00:00"}}, {"type": "Feature", "geometry": {"type": "Point", "coordinates": [16.607280506141667, 49.20723255095555]}, "properties": {"Album": "Sebastien", "Album2": "Jesli\u010dky", "Name": "20240716_100001.jpg", "Date": "2024-07-16 10:00:01"}}, {"type": "Feature", "geometry": {"type": "Point", "coordinates": [16.607280506141667, 49.20723255095555]}, "properties": {"Album": "Sebastien", "Album2": "Jesli\u010dky", "Name": "20240716_100002.jpg", "Date": "2024-07-16 10:00:02"}}, {"type": "Feature", "geometry": {"type": "Point", "coordinates": [16.603742828241668, 49.20797968753889]}, "properties": {"Album": "Sebastien", "Album2": "Jesli\u010dky", "Name": "20240716_100003.jpg", "Date": "2024-07-16 10:00:03"}}, {"type": "Feature", "geometry": {"type": "Point", "coordinates": [16.603775994786112, 49.20800652361667]}, "properties": {"Album": "Sebastien", "Album2": "Jesli\u010dky", "Name": "20240801_100000.jpg", "Date": "2024-08-01 10:00:00"}}, {"type": "Feature", "geometry": {"type": "Point", "coordinates": [16.603775994786112, 49.20800652361667]}, "properties": {"Album": "Sebastien", "Album2": "Jesli\u010dky", "Name": "20240801_100002.jpg", "Date": "2024-08-01 10:00:02"}}, {"type": "Feature", "geometry": {"type": "Point", "coordinates": [16.603775994786112, 49.20800652361667]}, "properties": {"Album": "Sebastien", "Album2": "Jesli\u010dky", "Name": "20240801_100003.jpg", "Date": "2024-08-01 10:00:03"}}, {"type": "Feature", "geometry": {"type": "Point", "coordinates": [16.60377757473889, 49.207975902327775]}, "properties": {"Album": "Sebastien", "Album2": "Jesli\u010dky", "Name": "20240808_100000.jpg", "Date": "2024-08-08 10:00:00"}}, {"type": "Feature", "geometry": {"type": "Point", "coordinates": [16.607023341194445, 49.207683282616664]}, "properties": {"Album": "Sebastien", "Album2": "Jesli\u010dky", "Name": "20240808_100001.jpg", "Date": "2024-08-08 10:00:01"}}, {"type": "Feature", "geometry": {"type": "Point", "coordinates": [16.60377757473889, 49.207975902327775]}, "properties": {"Album": "Sebastien", "Album2": "Jesli\u010dky", "Name": "20240808_100002.jpg", "Date": "2024-08-08 10:00:02"}}, {"type": "Feature", "geometry": {"type": "Point", "coordinates": [16.603753664541667, 49.207995744380554]}, "properties": {"Album": "Sebastien", "Album2": "Jesli\u010dky", "Name": "20240816_100002.jpg", "Date": "2024-08-16 10:00:02"}}, {"type": "Feature", "geometry": {"type": "Point", "coordinates": [16.603753664541667, 49.207995744380554]}, "properties": {"Album": "Sebastien", "Album2": "Jesli\u010dky", "Name": "20240816_100003.jpg", "Date": "2024-08-16 10:00:03"}}, {"type": "Feature", "geometry": {"type": "Point", "coordinates": [16.603740163841668, 49.20794733393611]}, "properties": {"Album": "Sebastien", "Album2": "Jesli\u010dky", "Name": "20240823_100003.jpg", "Date": "2024-08-23 10:00:03"}}, {"type": "Feature", "geometry": {"type": "Point", "coordinates": [16.603759397022223, 49.207950779275]}, "properties": {"Album": "Sebastien", "Album2": "Jesli\u010dky", "Name": "20240830_100000.jpg", "Date": "2024-08-30 10:00:00"}}, {"type": "Feature", "geometry": {"type": "Point", "coordinates": [16.603759397022223, 49.207950779275]}, "properties": {"Album": "Sebastien", "Album2": "Jesli\u010dky", "Name": "20240830_100001.jpg", "Date": "2024-08-30 10:00:01"}}, {"type": "Feature", "geometry": {"type": "Point", "coordinates": [16.603759397022223, 49.207950779275]}, "properties": {"Album": "Sebastien", "Album2": "Jesli\u010dky", "Name": "20240830_100002.jpg", "Date": "2024-08-30 10:00:02"}}, {"type": "Feature", "geometry": {"type": "Point", "coordinates": [16.607288997230555, 49.20682492604167]}, "properties": {"Album": "Sebastien", "Album2": "Jesli\u010dky", "Name": "20240906_10000.jpg", "Date": "2024-09-06 10:00:00"}}, {"type": "Feature", "geometry": {"type": "Point", "coordinates": [16.603759397022223, 49.207975626583334]}, "properties": {"Album": "Sebastien", "Album2": "Jesli\u010dky", "Name": "20240906_10001.jpg", "Date": "2024-09-06 10:00:01"}}, {"type": "Feature", "geometry": {"type": "Point", "coordinates": [16.607272375569444, 49.206765292425]}, "properties": {"Album": "Sebastien", "Album2": "Jesli\u010dky", "Name": "20240906_10002.jpg", "Date": "2024-09-06 10:00:02"}}, {"type": "Feature", "geometry": {"type": "Point", "coordinates": [16.603794503622222, 49.2079786328]}, "properties": {"Album": "Sebastien", "Album2": "Jesli\u010dky", "Name": "20240910_100000.jpg", "Date": "2024-09-10 10:00:00"}}, {"type": "Feature", "geometry": {"type": "Point", "coordinates": [16.603794503622222, 49.2079786328]}, "properties": {"Album": "Sebastien", "Album2": "Jesli\u010dky", "Name": "20240910_100001.jpg", "Date": "2024-09-10 10:00:01"}}, {"type": "Feature", "geometry": {"type": "Point", "coordinates": [16.603794503622222, 49.2079786328]}, "properties": {"Album": "Sebastien", "Album2": "Jesli\u010dky", "Name": "20240910_100002.jpg", "Date": "2024-09-10 10:00:02"}}, {"type": "Feature", "geometry": {"type": "Point", "coordinates": [16.603794503622222, 49.2079786328]}, "properties": {"Album": "Sebastien", "Album2": "Jesli\u010dky", "Name": "20240912_100000.jpg", "Date": "2024-09-12 10:00:00"}}, {"type": "Feature", "geometry": {"type": "Point", "coordinates": [16.606051990841667, 49.20575265819722]}, "properties": {"Album": "Sebastien", "Album2": "Jesli\u010dky", "Name": "20240912_100001.jpg", "Date": "2024-09-12 10:00:01"}}, {"type": "Feature", "geometry": {"type": "Point", "coordinates": [16.603842757191668, 49.20797257183611]}, "properties": {"Album": "Sebastien", "Album2": "Jesli\u010dky", "Name": "20240919_100000.jpg", "Date": "2024-09-19 10:00:00"}}, {"type": "Feature", "geometry": {"type": "Point", "coordinates": [16.610271043327778, 49.20717369870833]}, "properties": {"Album": "Sebastien", "Album2": "Jesli\u010dky", "Name": "20240927_100000.jpg", "Date": "2024-09-27 10:00:00"}}, {"type": "Feature", "geometry": {"type": "Point", "coordinates": [16.603842757191668, 49.20797257183611]}, "properties": {"Album": "Sebastien", "Album2": "Jesli\u010dky", "Name": "20240927_100001.jpg", "Date": "2024-09-27 10:00:01"}}, {"type": "Feature", "geometry": {"type": "Point", "coordinates": [16.603842757191668, 49.20797257183611]}, "properties": {"Album": "Sebastien", "Album2": "Jesli\u010dky", "Name": "20240927_100002.jpg", "Date": "2024-09-27 10:00:02"}}, {"type": "Feature", "geometry": {"type": "Point", "coordinates": [16.610353600294445, 49.20702708420278]}, "properties": {"Album": "Sebastien", "Album2": "Jesli\u010dky", "Name": "20240927_100003.jpg", "Date": "2024-09-27 10:00:03"}}, {"type": "Feature", "geometry": {"type": "Point", "coordinates": [16.610353600294445, 49.20702708420278]}, "properties": {"Album": "Sebastien", "Album2": "Jesli\u010dky", "Name": "20240927_100004.jpg", "Date": "2024-09-27 10:00:04"}}, {"type": "Feature", "geometry": {"type": "Point", "coordinates": [16.603842757191668, 49.20797257183611]}, "properties": {"Album": "Sebastien", "Album2": "Jesli\u010dky", "Name": "20240927_100005.jpg", "Date": "2024-09-27 10:00:05"}}, {"type": "Feature", "geometry": {"type": "Point", "coordinates": [16.60377239471389, 49.207971690044445]}, "properties": {"Album": "Jesli\u010dky", "Album2": "2024 \u2014 V\u00edt\u00e1n\u00ed jara", "Name": "20240321_174700.jpg", "Date": "2024-03-21 17:47:00"}}, {"type": "Feature", "geometry": {"type": "Point", "coordinates": [16.60377854157778, 49.20800874591111]}, "properties": {"Album": "Jesli\u010dky", "Album2": "2024 \u2014 V\u00edt\u00e1n\u00ed jara", "Name": "20240321_174701.jpg", "Date": "2024-03-21 17:47:01"}}, {"type": "Feature", "geometry": {"type": "Point", "coordinates": [16.60377854157778, 49.20800874591111]}, "properties": {"Album": "Jesli\u010dky", "Album2": "2024 \u2014 V\u00edt\u00e1n\u00ed jara", "Name": "20240321_174703.jpg", "Date": "2024-03-21 17:47:03"}}, {"type": "Feature", "geometry": {"type": "Point", "coordinates": [16.603829335466667, 49.20800884388611]}, "properties": {"Album": "Jesli\u010dky", "Album2": "Narozeniny - 2roky", "Name": "20240411_093400.jpg", "Date": "2024-04-11 09:34:00"}}, {"type": "Feature", "geometry": {"type": "Point", "coordinates": [16.603829335466667, 49.20800884388611]}, "properties": {"Album": "Jesli\u010dky", "Album2": "Narozeniny - 2roky", "Name": "20240411_093401.jpg", "Date": "2024-04-11 09:34:01"}}, {"type": "Feature", "geometry": {"type": "Point", "coordinates": [16.603829335466667, 49.20800884388611]}, "properties": {"Album": "Jesli\u010dky", "Album2": "Narozeniny - 2roky", "Name": "20240411_093402.jpg", "Date": "2024-04-11 09:34:02"}}, {"type": "Feature", "geometry": {"type": "Point", "coordinates": [16.603829335466667, 49.20800884388611]}, "properties": {"Album": "Jesli\u010dky", "Album2": "Narozeniny - 2roky", "Name": "20240411_093403.jpg", "Date": "2024-04-11 09:34:03"}}, {"type": "Feature", "geometry": {"type": "Point", "coordinates": [16.6070175422, 49.20734000350278]}, "properties": {"Album": "Jesli\u010dky", "Album2": "Narozeniny - 2roky", "Name": "20240411_103400.jpg", "Date": "2024-04-11 10:34:00"}}]}