{"type": "FeatureCollection", "features": [{"type": "Feature", "geometry": {"type": "Point", "coordinates": [16.603731792730557, 49.207998559241666]}, "properties": {"Album": "Sebastien", "Album2": "Jesli\u010dky", "Name": "20240118_100000.jpg", "Date": "2024-01-18 10:00:00"}}, {"type": "Feature", "geometry": {"type": "Point", "coordinates": [16.603731792730557, 49.207998559241666]}, "properties": {"Album": "Sebastien", "Album2": "Jesli\u010dky", "Name": "20240118_100001.jpg", "Date": "2024-01-18 10:00:01"}}, {"type": "Feature", "geometry": {"type": "Point", "coordinates": [16.603731792730557, 49.207998559241666]}, "properties": {"Album": "Sebastien", "Album2": "Jesli\u010dky", "Name": "20240118_100003.jpg", "Date": "2024-01-18 10:00:03"}}, {"type": "Feature", "geometry": {"type": "Point", "coordinates": [16.60377854157778, 49.20800874591111]}, "properties": {"Album": "Sebastien", "Album2": "Jesli\u010dky", "Name": "20240307_100000.jpg", "Date": "2024-03-07 10:00:00"}}, {"type": "Feature", "geometry": {"type": "Point", "coordinates": [16.60377854157778, 49.20800874591111]}, "properties": {"Album": "Sebastien", "Album2": "Jesli\u010dky", "Name": "20240307_100001.jpg", "Date": "2024-03-07 10:00:01"}}, {"type": "Feature", "geometry": {"type": "Point", "coordinates": [16.606804599766665, 49.20736082895278]}, "properties": {"Album": "Sebastien", "Album2": "Jesli\u010dky", "Name": "20240322_100000.jpg", "Date": "2024-03-22 10:00:00"}}, {"type": "Feature", "geometry": {"type": "Point", "coordinates": [16.60377854157778, 49.20800874591111]}, "properties": {"Album": "Sebastien", "Album2": "Jesli\u010dky", "Name": "20240322_100001.jpg", "Date": "2024-03-22 10:00:01"}}, {"type": "Feature", "geometry": {"type": "Point", "coordinates": [16.60377854157778, 49.20800874591111]}, "properties": {"Album": "Sebastien", "Album2": "Jesli\u010dky", "Name": "20240322_100003.jpg", "Date": "2024-03-22 10:00:03"}}, {"type": "Feature", "geometry": {"type": "Point", "coordinates": [16.603719887405557, 49.20801591969167]}, "properties": {"Album": "Sebastien", "Album2": "Jesli\u010dky", "Name": "20240411_100000.jpg", "Date": "2024-04-11 10:00:00"}}, {"type": "Feature", "geometry": {"type": "Point", "coordinates": [16.603719887405557, 49.20801591969167]}, "properties": {"Album": "Sebastien", "Album2": "Jesli\u010dky", "Name": "20240411_100001.jpg", "Date": "2024-04-11 10:00:01"}}, {"type": "Feature", "geometry": {"type": "Point", "coordinates": [16.60377327724722, 49.20799364646111]}, "properties": {"Album": "Sebastien", "Album2": "Jesli\u010dky", "Name": "20240418_100000.jpg", "Date": "2024-04-18 10:00:00"}}, {"type": "Feature", "geometry": {"type": "Point", "coordinates": [16.603775055208335, 49.208026356244446]}, "properties": {"Album": "Sebastien", "Album2": "Jesli\u010dky", "Name": "20240502_100000.jpg", "Date": "2024-05-02 10:00:00"}}, {"type": "Feature", "geometry": {"type": "Point", "coordinates": [16.603775055208335, 49.208026356244446]}, "properties": {"Album": "Sebastien", "Album2": "Jesli\u010dky", "Name": "20240502_100001.jpg", "Date": "2024-05-02 10:00:01"}}, {"type": "Feature", "geometry": {"type": "Point", "coordinates": [16.603832096244446, 49.208048086541666]}, "properties": {"Album": "Sebastien", "Album2": "Jesli\u010dky", "Name": "20240506_100000.jpg", "Date": "2024-05-06 10:00:00"}}, {"type": "Feature", "geometry": {"type": "Point", "coordinates": [16.6069085038, 49.20736062045833]}, "properties": {"Album": "Sebastien", "Album2": "Jesli\u010dky", "Name": "20240506_100001.jpg", "Date": "2024-05-06 10:00:01"}}, {"type": "Feature", "geometry": {"type": "Point", "coordinates": [16.60732790116111, 49.207417948980556]}, "properties": {"Album": "Sebastien", "Album2": "Jesli\u010dky", "Name": "20240509_100000.jpg", "Date": "2024-05-09 10:00:00"}}, {"type": "Feature", "geometry": {"type": "Point", "coordinates": [16.603806849555557, 49.20801909309444]}, "properties": {"Album": "Sebastien", "Album2": "Jesli\u010dky", "Name": "20240509_100001.jpg", "Date": "2024-05-09 10:00:01"}}, {"type": "Feature", "geometry": {"type": "Point", "coordinates": [16.603790498644443, 49.2079973867]}, "properties": {"Album": "Sebastien", "Album2": "Jesli\u010dky", "Name": "20240516_100000.jpg", "Date": "2024-05-16 10:00:00"}}, {"type": "Feature", "geometry": {"type": "Point", "coordinates": [16.603790498644443, 49.2079973867]}, "properties": {"Album": "Sebastien", "Album2": "Jesli\u010dky", "Name": "20240516_100001.jpg", "Date": "2024-05-16 10:00:01"}}, {"type": "Feature", "geometry": {"type": "Point", "coordinates": [16.603790498644443, 49.2079973867]}, "properties": {"Album": "Sebastien", "Album2": "Jesli\u010dky", "Name": "20240516_100002.jpg", "Date": "2024-05-16 10:00:02"}}, {"type": "Feature", "geometry": {"type": "Point", "coordinates": [16.603790498644443, 49.2079973867]}, "properties": {"Album": "Sebastien", "Album2": "Jesli\u010dky", "Name": "20240516_100003.jpg", "Date": "2024-05-16 10:00:03"}}, {"type": "Feature", "geometry": {"type": "Point", "coordinates": [16.603854663322224, 49.20796942963333]}, "properties": {"Album": "Sebastien", "Album2": "Jesli\u010dky", "Name": "20240523_100000.jpg", "Date": "2024-05-23 10:00:00"}}, {"type": "Feature", "geometry": {"type": "Point", "coordinates": [16.603854663322224, 49.20796942963333]}, "properties": {"Album": "Sebastien", "Album2": "Jesli\u010dky", "Name": "20240523_100001.jpg", "Date": "2024-05-23 10:00:01"}}, {"type": "Feature", "geometry": {"type": "Point", "coordinates": [16.603760101666666, 49.207958445627774]}, "properties": {"Album": "Sebastien", "Album2": "Jesli\u010dky", "Name": "20240530_100000.jpg", "Date": "2024-05-30 10:00:00"}}, {"type": "Feature", "geometry": {"type": "Point", "coordinates": [16.603760101666666, 49.207958445627774]}, "properties": {"Album": "Sebastien", "Album2": "Jesli\u010dky", "Name": "20240530_100001.jpg", "Date": "2024-05-30 10:00:01"}}, {"type": "Feature", "geometry": {"type": "Point", "coordinates": [16.603760101666666, 49.207958445627774]}, "properties": {"Album": "Sebastien", "Album2": "Jesli\u010dky", "Name": "20240530_100002.jpg", "Date": "2024-05-30 10:00:02"}}, {"type": "Feature", "geometry": {"type": "Point", "coordinates": [16.603786798702778, 49.20797189971389]}, "properties": {"Album": "Sebastien", "Album2": "Jesli\u010dky", "Name": "20240606_100000.jpg", "Date": "2024-06-06 10:00:00"}}, {"type": "Feature", "geometry": {"type": "Point", "coordinates": [16.60715398316389, 49.20736847850278]}, "properties": {"Album": "Sebastien", "Album2": "Jesli\u010dky", "Name": "20240612_100000.jpg", "Date": "2024-06-12 10:00:00"}}, {"type": "Feature", "geometry": {"type": "Point", "coordinates": [16.60679873733333, 49.207475908908336]}, "properties": {"Album": "Sebastien", "Album2": "Jesli\u010dky", "Name": "20240613_100000.jpg", "Date": "2024-06-13 10:00:00"}}, {"type": "Feature", "geometry": {"type": "Point", "coordinates": [16.60788498661389, 49.208010623225]}, "properties": {"Album": "Sebastien", "Album2": "Jesli\u010dky", "Name": "20240613_100001.jpg", "Date": "2024-06-13 10:00:01"}}, {"type": "Feature", "geometry": {"type": "Point", "coordinates": [16.603818576677778, 49.20796604292778]}, "properties": {"Album": "Sebastien", "Album2": "Jesli\u010dky", "Name": "20240627_100000.jpg", "Date": "2024-06-27 10:00:00"}}, {"type": "Feature", "geometry": {"type": "Point", "coordinates": [16.603818576677778, 49.20796604292778]}, "properties": {"Album": "Sebastien", "Album2": "Jesli\u010dky", "Name": "20240627_100001.jpg", "Date": "2024-06-27 10:00:01"}}, {"type": "Feature", "geometry": {"type": "Point", "coordinates": [16.603818576677778, 49.20796604292778]}, "properties": {"Album": "Sebastien", "Album2": "Jesli\u010dky", "Name": "20240627_100002.jpg", "Date": "2024-06-27 10:00:02"}}, {"type": "Feature", "geometry": {"type": "Point", "coordinates": [16.603818576677778, 49.20796604292778]}, "properties": {"Album": "Sebastien", "Album2": "Jesli\u010dky", "Name": "20240627_100003.jpg", "Date": "2024-06-27 10:00:03"}}, {"type": "Feature", "geometry": {"type": "Point", "coordinates": [16.603818576677778, 49.20796604292778]}, "properties": {"Album": "Sebastien", "Album2": "Jesli\u010dky", "Name": "20240628_100000.jpg", "Date": "2024-06-28 10:00:00"}}, {"type": "Feature", "geometry": {"type": "Point", "coordinates": [16.603818576677778, 49.20796604292778]}, "properties": {"Album": "Sebastien", "Album2": "Jesli\u010dky", "Name": "20240628_100001.jpg", "Date": "2024-06-28 10:00:01"}}, {"type": "Feature", "geometry": {"type": "Point", "coordinates": [16.60711123231389, 49.20730364340278]}, "properties": {"Album": "Sebastien", "Album2": "Jesli\u010dky", "Name": "20240711_100000.jpg", "Date": "2024-07-11 10:00:00"}}, {"type": "Feature", "geometry": {"type": "Point", "coordinates": [16.603736907177776, 49.207994336716666]}, "properties": {"Album": "Sebastien", "Album2": "Jesli\u010dky", "Name": "20240711_100001.jpg", "Date": "2024-07-11 10:00:01"}}, {"type": "Feature", "geometry": {"type": "Point", "coordinates": [16.603736907177776, 49.207994336716666]}, "properties": {"Album": "Sebastien", "Album2": "Jesli\u010dky", "Name": "20240711_100002.jpg", "Date": "2024-07-11 10:00:02"}}, {"type": "Feature", "geometry": {"type": "Point", "coordinates": [16.603736907177776, 49.207994336716666]}, "properties": {"Album": "Sebastien", "Album2": "Jesli\u010dky", "Name": "20240711_100003.jpg", "Date": "2024-07-11 10:00:03"}}, {"type": "Feature", "geometry": {"type": "Point", "coordinates": [16.603742828241668, 49.20797968753889]}, "properties": {"Album": "Sebastien", "Album2": "Jesli\u010dky", "Name": "20240716_100000.jpg", "Date": "2024-07-16 10:00:00"}}, {"type": "Feature", "geometry": {"type": "Point", "coordinates": [16.607280506141667, 49.20723255095555]}, "properties": {"Album": "Sebastien", "Album2": "Jesli\u010dky", "Name": "20240716_100001.jpg", "Date": "2024-07-16 10:00:01"}}, {"type": "Feature", "geometry": {"type": "Point", "coordinates": [16.607280506141667, 49.20723255095555]}, "properties": {"Album": "Sebastien", "Album2": "Jesli\u010dky", "Name": "20240716_100002.jpg", "Date": "2024-07-16 10:00:02"}}, {"type": "Feature", "geometry": {"type": "Point", "coordinates": [16.603742828241668, 49.20797968753889]}, "properties": {"Album": "Sebastien", "Album2": "Jesli\u010dky", "Name": "20240716_100003.jpg", "Date": "2024-07-16 10:00:03"}}, {"type": "Feature", "geometry": {"type": "Point", "coordinates": [16.603775994786112, 49.20800652361667]}, "properties": {"Album": "Sebastien", "Album2": "Jesli\u010dky", "Name": "20240801_100000.jpg", "Date": "2024-08-01 10:00:00"}}, {"type": "Feature", "geometry": {"type": "Point", "coordinates": [16.603775994786112, 49.20800652361667]}, "properties": {"Album": "Sebastien", "Album2": "Jesli\u010dky", "Name": "20240801_100002.jpg", "Date": "2024-08-01 10:00:02"}}, {"type": "Feature", "geometry": {"type": "Point", "coordinates": [16.603775994786112, 49.20800652361667]}, "properties": {"Album": "Sebastien", "Album2": "Jesli\u010dky", "Name": "20240801_100003.jpg", "Date": "2024-08-01 10:00:03"}}, {"type": "Feature", "geometry": {"type": "Point", "coordinates": [16.60377757473889, 49.207975902327775]}, "properties": {"Album": "Sebastien", "Album2": "Jesli\u010dky", "Name": "20240808_100000.jpg", "Date": "2024-08-08 10:00:00"}}, {"type": "Feature", "geometry": {"type": "Point", "coordinates": [16.607023341194445, 49.207683282616664]}, "properties": {"Album": "Sebastien", "Album2": "Jesli\u010dky", "Name": "20240808_100001.jpg", "Date": "2024-08-08 10:00:01"}}, {"type": "Feature", "geometry": {"type": "Point", "coordinates": [16.60377757473889, 49.207975902327775]}, "properties": {"Album": "Sebastien", "Album2": "Jesli\u010dky", "Name": "20240808_100002.jpg", "Date": "2024-08-08 10:00:02"}}, {"type": "Feature", "geometry": {"type": "Point", "coordinates": [16.603753664541667, 49.207995744380554]}, "properties": {"Album": "Sebastien", "Album2": "Jesli\u010dky", "Name": "20240816_100002.jpg", "Date": "2024-08-16 10:00:02"}}, {"type": "Feature", "geometry": {"type": "Point", "coordinates": [16.603753664541667, 49.207995744380554]}, "properties": {"Album": "Sebastien", "Album2": "Jesli\u010dky", "Name": "20240816_100003.jpg", "Date": "2024-08-16 10:00:03"}}, {"type": "Feature", "geometry": {"type": "Point", "coordinates": [16.603740163841668, 49.20794733393611]}, "properties": {"Album": "Sebastien", "Album2": "Jesli\u010dky", "Name": "20240823_100003.jpg", "Date": "2024-08-23 10:00:03"}}, {"type": "Feature", "geometry": {"type": "Point", "coordinates": [16.603759397022223, 49.207950779275]}, "properties": {"Album": "Sebastien", "Album2": "Jesli\u010dky", "Name": "20240830_100000.jpg", "Date": "2024-08-30 10:00:00"}}, {"type": "Feature", "geometry": {"type": "Point", "coordinates": [16.603759397022223, 49.207950779275]}, "properties": {"Album": "Sebastien", "Album2": "Jesli\u010dky", "Name": "20240830_100001.jpg", "Date": "2024-08-30 10:00:01"}}, {"type": "Feature", "geometry": {"type": "Point", "coordinates": [16.603759397022223, 49.207950779275]}, "properties": {"Album": "Sebastien", "Album2": "Jesli\u010dky", "Name": "20240830_100002.jpg", "Date": "2024-08-30 10:00:02"}}, {"type": "Feature", "geometry": {"type": "Point", "coordinates": [16.607288997230555, 49.20682492604167]}, "properties": {"Album": "Sebastien", "Album2": "Jesli\u010dky", "Name": "20240906_10000.jpg", "Date": "2024-09-06 10:00:00"}}, {"type": "Feature", "geometry": {"type": "Point", "coordinates": [16.603759397022223, 49.207975626583334]}, "properties": {"Album": "Sebastien", "Album2": "Jesli\u010dky", "Name": "20240906_10001.jpg", "Date": "2024-09-06 10:00:01"}}, {"type": "Feature", "geometry": {"type": "Point", "coordinates": [16.607272375569444, 49.206765292425]}, "properties": {"Album": "Sebastien", "Album2": "Jesli\u010dky", "Name": "20240906_10002.jpg", "Date": "2024-09-06 10:00:02"}}, {"type": "Feature", "geometry": {"type": "Point", "coordinates": [16.603794503622222, 49.2079786328]}, "properties": {"Album": "Sebastien", "Album2": "Jesli\u010dky", "Name": "20240910_100000.jpg", "Date": "2024-09-10 10:00:00"}}, {"type": "Feature", "geometry": {"type": "Point", "coordinates": [16.603794503622222, 49.2079786328]}, "properties": {"Album": "Sebastien", "Album2": "Jesli\u010dky", "Name": "20240910_100001.jpg", "Date": "2024-09-10 10:00:01"}}, {"type": "Feature", "geometry": {"type": "Point", "coordinates": [16.603794503622222, 49.2079786328]}, "properties": {"Album": "Sebastien", "Album2": "Jesli\u010dky", "Name": "20240910_100002.jpg", "Date": "2024-09-10 10:00:02"}}, {"type": "Feature", "geometry": {"type": "Point", "coordinates": [16.603794503622222, 49.2079786328]}, "properties": {"Album": "Sebastien", "Album2": "Jesli\u010dky", "Name": "20240912_100000.jpg", "Date": "2024-09-12 10:00:00"}}, {"type": "Feature", "geometry": {"type": "Point", "coordinates": [16.606051990841667, 49.20575265819722]}, "properties": {"Album": "Sebastien", "Album2": "Jesli\u010dky", "Name": "20240912_100001.jpg", "Date": "2024-09-12 10:00:01"}}, {"type": "Feature", "geometry": {"type": "Point", "coordinates": [16.603842757191668, 49.20797257183611]}, "properties": {"Album": "Sebastien", "Album2": "Jesli\u010dky", "Name": "20240919_100000.jpg", "Date": "2024-09-19 10:00:00"}}, {"type": "Feature", "geometry": {"type": "Point", "coordinates": [16.610271043327778, 49.20717369870833]}, "properties": {"Album": "Sebastien", "Album2": "Jesli\u010dky", "Name": "20240927_100000.jpg", "Date": "2024-09-27 10:00:00"}}, {"type": "Feature", "geometry": {"type": "Point", "coordinates": [16.603842757191668, 49.20797257183611]}, "properties": {"Album": "Sebastien", "Album2": "Jesli\u010dky", "Name": "20240927_100001.jpg", "Date": "2024-09-27 10:00:01"}}, {"type": "Feature", "geometry": {"type": "Point", "coordinates": [16.603842757191668, 49.20797257183611]}, "properties": {"Album": "Sebastien", "Album2": "Jesli\u010dky", "Name": "20240927_100002.jpg", "Date": "2024-09-27 10:00:02"}}, {"type": "Feature", "geometry": {"type": "Point", "coordinates": [16.610353600294445, 49.20702708420278]}, "properties": {"Album": "Sebastien", "Album2": "Jesli\u010dky", "Name": "20240927_100003.jpg", "Date": "2024-09-27 10:00:03"}}, {"type": "Feature", "geometry": {"type": "Point", "coordinates": [16.610353600294445, 49.20702708420278]}, "properties": {"Album": "Sebastien", "Album2": "Jesli\u010dky", "Name": "20240927_100004.jpg", "Date": "2024-09-27 10:00:04"}}, {"type": "Feature", "geometry": {"type": "Point", "coordinates": [16.603842757191668, 49.20797257183611]}, "properties": {"Album": "Sebastien", "Album2": "Jesli\u010dky", "Name": "20240927_100005.jpg", "Date": "2024-09-27 10:00:05"}}, {"type": "Feature", "geometry": {"type": "Point", "coordinates": [16.603794380675, 49.20797332341389]}, "properties": {"Album": "Sebastien", "Album2": "Jesli\u010dky", "Name": "20241101_100000.jpg", "Date": "2024-11-01 10:00:00"}}, {"type": "Feature", "geometry": {"type": "Point", "coordinates": [16.603794380675, 49.20797332341389]}, "properties": {"Album": "Sebastien", "Album2": "Jesli\u010dky", "Name": "20241101_100001.jpg", "Date": "2024-11-01 10:00:01"}}, {"type": "Feature", "geometry": {"type": "Point", "coordinates": [16.603794380675, 49.20797332341389]}, "properties": {"Album": "Sebastien", "Album2": "Jesli\u010dky", "Name": "20241101_100002.jpg", "Date": "2024-11-01 10:00:02"}}, {"type": "Feature", "geometry": {"type": "Point", "coordinates": [16.603794380675, 49.20797332341389]}, "properties": {"Album": "Sebastien", "Album2": "Jesli\u010dky", "Name": "20241101_100003.jpg", "Date": "2024-11-01 10:00:03"}}, {"type": "Feature", "geometry": {"type": "Point", "coordinates": [16.603794380675, 49.20797332341389]}, "properties": {"Album": "Sebastien", "Album2": "Jesli\u010dky", "Name": "20241101_100004.jpg", "Date": "2024-11-01 10:00:04"}}, {"type": "Feature", "geometry": {"type": "Point", "coordinates": [16.603794380675, 49.20797332341389]}, "properties": {"Album": "Sebastien", "Album2": "Jesli\u010dky", "Name": "20241101_100005.jpg", "Date": "2024-11-01 10:00:05"}}, {"type": "Feature", "geometry": {"type": "Point", "coordinates": [16.603820309316667, 49.20796935538889]}, "properties": {"Album": "Sebastien", "Album2": "Jesli\u010dky", "Name": "20241107_100000.jpg", "Date": "2024-11-07 10:00:00"}}, {"type": "Feature", "geometry": {"type": "Point", "coordinates": [16.603820309316667, 49.20796935538889]}, "properties": {"Album": "Sebastien", "Album2": "Jesli\u010dky", "Name": "20241107_100001.jpg", "Date": "2024-11-07 10:00:01"}}, {"type": "Feature", "geometry": {"type": "Point", "coordinates": [16.60377239471389, 49.207971690044445]}, "properties": {"Album": "Jesli\u010dky", "Album2": "2024 \u2014 V\u00edt\u00e1n\u00ed jara", "Name": "20240321_174700.jpg", "Date": "2024-03-21 17:47:00"}}, {"type": "Feature", "geometry": {"type": "Point", "coordinates": [16.60377854157778, 49.20800874591111]}, "properties": {"Album": "Jesli\u010dky", "Album2": "2024 \u2014 V\u00edt\u00e1n\u00ed jara", "Name": "20240321_174701.jpg", "Date": "2024-03-21 17:47:01"}}, {"type": "Feature", "geometry": {"type": "Point", "coordinates": [16.60377854157778, 49.20800874591111]}, "properties": {"Album": "Jesli\u010dky", "Album2": "2024 \u2014 V\u00edt\u00e1n\u00ed jara", "Name": "20240321_174703.jpg", "Date": "2024-03-21 17:47:03"}}, {"type": "Feature", "geometry": {"type": "Point", "coordinates": [16.603829335466667, 49.20800884388611]}, "properties": {"Album": "Jesli\u010dky", "Album2": "Narozeniny - 2roky", "Name": "20240411_093400.jpg", "Date": "2024-04-11 09:34:00"}}, {"type": "Feature", "geometry": {"type": "Point", "coordinates": [16.603829335466667, 49.20800884388611]}, "properties": {"Album": "Jesli\u010dky", "Album2": "Narozeniny - 2roky", "Name": "20240411_093401.jpg", "Date": "2024-04-11 09:34:01"}}, {"type": "Feature", "geometry": {"type": "Point", "coordinates": [16.603829335466667, 49.20800884388611]}, "properties": {"Album": "Jesli\u010dky", "Album2": "Narozeniny - 2roky", "Name": "20240411_093402.jpg", "Date": "2024-04-11 09:34:02"}}, {"type": "Feature", "geometry": {"type": "Point", "coordinates": [16.603829335466667, 49.20800884388611]}, "properties": {"Album": "Jesli\u010dky", "Album2": "Narozeniny - 2roky", "Name": "20240411_093403.jpg", "Date": "2024-04-11 09:34:03"}}, {"type": "Feature", "geometry": {"type": "Point", "coordinates": [16.6070175422, 49.20734000350278]}, "properties": {"Album": "Jesli\u010dky", "Album2": "Narozeniny - 2roky", "Name": "20240411_103400.jpg", "Date": "2024-04-11 10:34:00"}}]}